HIERARCHY
ROOT Hips
{
	OFFSET -0.0000 0.0000 0.0000
	CHANNELS 6 Xposition Yposition Zposition Zrotation Xrotation Yrotation
	JOINT LeftUpperLeg
	{
		OFFSET -5.2299 -9.3936 -2.7607
		CHANNELS 3 Zrotation Xrotation Yrotation
		JOINT LeftLowerLeg
		{
			OFFSET -5.8867 -41.6441 -0.6557
			CHANNELS 3 Zrotation Xrotation Yrotation
			JOINT LeftFoot
			{
				OFFSET 4.1738 -43.7584 -2.9512
				CHANNELS 3 Zrotation Xrotation Yrotation
				JOINT LeftToe
				{
					OFFSET -4.9294 -6.5279 12.6259
					CHANNELS 3 Zrotation Xrotation Yrotation
					End Site
					{
						OFFSET 0.0000 5.0000 0.0000
					}
				}
			}
		}
	}
	JOINT RightUpperLeg
	{
		OFFSET 5.7193 -10.6548 -2.2218
		CHANNELS 3 Zrotation Xrotation Yrotation
		JOINT RightLowerLeg
		{
			OFFSET 4.8074 -39.7560 -1.4061
			CHANNELS 3 Zrotation Xrotation Yrotation
			JOINT RightFoot
			{
				OFFSET -1.4489 -44.6852 -1.8030
				CHANNELS 3 Zrotation Xrotation Yrotation
				JOINT RightToe
				{
					OFFSET 4.0575 -6.5287 12.7076
					CHANNELS 3 Zrotation Xrotation Yrotation
					End Site
					{
						OFFSET 0.0000 5.0000 0.0000
					}
				}
			}
		}
	}
	JOINT Spine
	{
		OFFSET -0.0000 11.2930 0.0000
		CHANNELS 3 Zrotation Xrotation Yrotation
		JOINT Spine1
		{
			OFFSET -0.0000 14.5636 0.0000
			CHANNELS 3 Zrotation Xrotation Yrotation
			JOINT Spine2
			{
				OFFSET -0.0000 5.6082 0.0000
				CHANNELS 3 Zrotation Xrotation Yrotation
				JOINT Neck
				{
					OFFSET -0.0000 17.1365 0.0000
					CHANNELS 3 Zrotation Xrotation Yrotation
					JOINT Head
					{
						OFFSET -2.4654 17.5391 2.4463
						CHANNELS 3 Zrotation Xrotation Yrotation
						End Site
						{
							OFFSET 0.0000 5.0000 0.0000
						}
					}
				}
				JOINT LeftShoulder
				{
					OFFSET -4.7725 8.7643 -0.8375
					CHANNELS 3 Zrotation Xrotation Yrotation
					JOINT LeftUpperArm
					{
						OFFSET -12.6285 5.7680 -1.3885
						CHANNELS 3 Zrotation Xrotation Yrotation
						JOINT LeftLowerArm
						{
							OFFSET -27.2907 -6.9853 -3.9094
							CHANNELS 3 Zrotation Xrotation Yrotation
							JOINT LeftHand
							{
								OFFSET -27.6174 2.1254 -0.2478
								CHANNELS 3 Zrotation Xrotation Yrotation
								End Site
								{
									OFFSET 0.0000 5.0000 0.0000
								}
							}
						}
					}
				}
				JOINT RightShoulder
				{
					OFFSET 4.6636 8.6612 -1.4864
					CHANNELS 3 Zrotation Xrotation Yrotation
					JOINT RightUpperArm
					{
						OFFSET 10.9342 5.3674 -0.9118
						CHANNELS 3 Zrotation Xrotation Yrotation
						JOINT RightLowerArm
						{
							OFFSET 29.2029 -3.5440 -2.4565
							CHANNELS 3 Zrotation Xrotation Yrotation
							JOINT RightHand
							{
								OFFSET 27.1879 -0.4835 -1.6445
								CHANNELS 3 Zrotation Xrotation Yrotation
								End Site
								{
									OFFSET 0.0000 5.0000 0.0000
								}
							}
						}
					}
				}
			}
		}
	}
}
MOTION
Frames: 90
Frame Time: 0.033333
3.091975 99.326302 -2.879253 -7.648326 -4.500176 3.494152 10.474695 16.678414 6.037180 3.298381 1.584202 -2.124776 -6.900946 -6.810117 1.523667 10.971294 -0.323162 0.548120 10.998006 -29.006074 3.065711 -1.493665 3.277402 -1.913382 -18.826474 9.186434 10.988333 1.462648 -7.748870 -6.750313 10.039777 8.841115 0.848174 -8.249783 -0.540876 8.118487 10.175063 12.133346 -4.307912 -3.090491 -14.557362 -2.873852 -1.149536 1.136472 0.570511 -2.230586 1.306395 7.944921 61.199982 6.226043 18.681260 7.375217 -2.485858 23.103598 6.105053 -0.786589 4.097663 -2.155802 -1.396447 -1.656323 -64.387329 31.250623 -13.858476 -3.510734 -0.571213 -26.555173 -6.684043 -17.222790 -2.857577
3.888584 98.521301 0.649342 -7.708897 -4.269377 2.654790 9.890317 19.317747 5.858156 3.053608 1.014313 -1.819484 -6.629478 -7.987990 1.953169 11.264165 -0.573180 0.835878 10.582158 -30.010685 2.652246 -1.847439 5.592333 -1.841857 -17.397599 8.135879 10.110489 1.586344 -7.689763 -6.661168 9.988122 9.018362 0.655615 -8.655185 -0.673350 8.170082 10.649266 12.015342 -4.627767 -3.716280 -15.172648 -2.853850 -1.069734 0.945716 1.011156 -2.063914 1.605066 7.711948 60.939337 6.807573 19.523638 6.839050 -2.269959 22.229660 6.648196 0.398722 4.495376 -3.008260 -1.353599 -1.862435 -64.003749 31.973794 -14.258690 -3.309736 -0.524143 -25.094880 -6.460289 -17.936283 -2.830986
4.856150 97.852081 4.456409 -6.705936 -3.556012 1.800844 7.993585 21.364479 5.471575 2.567645 1.085009 -1.512807 -5.154344 -8.672341 3.151742 10.784534 -1.823257 1.376244 8.817293 -31.031894 1.163322 -2.226062 9.132252 -1.694478 -15.308739 11.269545 9.336846 2.741716 -7.987275 -6.417133 9.037185 8.842877 0.592932 -8.587308 -0.691065 7.907302 10.297567 11.822293 -4.607359 -4.265413 -16.402326 -2.567945 -0.582091 0.932910 1.488615 -0.638430 1.881160 7.661801 59.993300 7.024107 19.820214 6.261483 -1.920939 21.434122 7.194340 1.194549 4.971315 -4.873250 -1.476027 -2.021393 -62.713335 32.361706 -14.565497 -2.757725 -0.091186 -23.022978 -6.231425 -17.784238 -1.676801
5.940033 97.632637 8.632761 -4.642823 -2.287548 0.970233 5.034338 23.092528 5.057797 1.483609 1.057895 -1.005317 -2.120078 -6.574845 4.465470 9.848719 -4.624108 2.320364 5.683299 -32.234691 -1.175638 -2.299662 11.684711 -1.372139 -13.740994 17.723004 9.873284 4.150680 -8.117569 -5.590716 7.260737 8.232294 0.717236 -8.087104 -0.837885 7.531867 8.995103 11.577626 -4.508212 -4.314216 -17.860498 -2.078770 0.036698 0.923128 1.700306 1.436554 1.815425 7.874810 58.928047 7.214268 19.105122 5.864711 -1.569839 20.896045 7.189328 1.874007 5.120386 -6.905727 -1.886668 -2.311271 -61.361120 32.463641 -14.322950 -2.293082 0.517898 -20.644816 -6.423008 -17.745942 -0.041441
6.944296 97.652855 12.886064 -2.658159 -1.150120 0.395480 2.545712 24.484223 4.955119 0.133087 1.611179 -0.387208 1.062283 -1.674479 4.699043 9.201277 -9.206848 3.816527 2.797052 -32.929832 -2.973456 -2.408321 14.173460 -0.920823 -13.058827 21.719823 10.364781 5.192344 -7.618773 -4.697533 5.537758 7.570154 0.890364 -7.526688 -1.405106 7.084071 7.456986 11.528316 -4.336627 -3.953611 -18.924120 -1.799005 0.584239 0.806357 1.822361 2.295861 1.606730 7.725193 59.387673 7.889869 17.820545 5.910877 -1.422831 20.464192 7.189306 2.368549 4.991095 -7.288163 -2.386479 -2.486348 -60.826099 33.490081 -14.252341 -2.300705 0.750106 -18.746835 -6.765086 -17.366479 1.471874
7.843472 98.010345 17.163961 -1.037087 -0.313541 0.298247 0.488156 23.213882 5.356690 -0.301519 6.259486 0.091556 3.311767 5.346597 3.128895 9.508208 -15.953490 6.149450 0.386952 -32.918198 -3.987916 -2.708963 16.721128 -0.326674 -12.050374 22.275490 9.960819 5.874248 -6.385595 -3.976048 4.038532 7.005835 1.082108 -6.706538 -2.306293 6.462893 5.800068 11.790283 -4.180544 -3.396072 -19.741205 -1.633547 0.751590 1.030957 1.811189 2.234238 1.076845 7.394678 61.041839 8.866701 15.973236 6.122648 -1.359709 19.917367 7.459791 2.345353 4.248240 -6.324020 -2.971921 -2.529405 -61.020484 35.044721 -14.377398 -2.615246 1.017589 -17.826227 -7.068818 -16.550079 2.529306
8.671359 98.519501 21.351545 0.364151 0.335467 0.627665 -1.274800 19.404870 5.431918 -0.067020 14.259276 0.593102 5.262123 15.246943 0.892868 10.131371 -22.953205 8.708962 -1.720640 -32.267674 -4.530903 -3.220649 19.080006 0.379807 -10.415283 19.890305 8.327430 6.266818 -4.923312 -3.645499 2.556338 6.467612 1.292420 -5.513026 -3.085901 5.245616 3.959685 12.085552 -3.507581 -2.982183 -20.212271 -2.061871 0.704693 1.347435 1.838259 1.979863 0.414439 6.906833 63.045248 9.708511 13.804061 6.178820 -1.249625 19.300233 7.453639 1.070325 3.414959 -4.857894 -3.401580 -2.708102 -61.150962 36.367653 -14.932082 -3.060386 1.131508 -17.858879 -7.068288 -15.663027 3.422258
9.321815 99.108994 25.340084 1.524362 0.853427 1.140591 -2.723637 13.127723 5.462693 0.498783 25.137695 0.579813 8.628556 25.967072 -2.565291 8.867573 -21.696756 8.462430 -3.472098 -30.919889 -4.668646 -3.721863 20.777088 1.060243 -8.160194 15.477189 6.175938 6.010465 -4.326810 -3.599684 1.051652 6.043851 1.527212 -3.781761 -3.871351 3.673895 2.005959 12.699881 -2.726392 -2.613057 -20.758677 -2.344581 0.453883 1.291261 1.397379 2.099400 -0.198769 6.721745 64.382565 10.199726 11.993456 6.145101 -1.113010 18.546651 7.462150 -0.033118 2.311235 -3.689771 -3.760306 -2.876461 -60.579878 37.320686 -16.066720 -3.188943 1.338957 -18.581345 -7.016574 -14.866001 3.626202
9.826236 99.608688 28.973848 2.660322 1.353181 1.805606 -3.837544 5.224012 5.622467 0.779616 37.040825 0.193784 14.226670 34.626182 -6.941227 5.085047 -9.577233 3.265109 -5.088030 -29.137746 -4.569299 -3.992142 21.287259 1.720915 -6.588520 11.950725 4.066177 5.455942 -3.963867 -3.572348 -0.544679 5.701363 1.545053 -1.823569 -4.508569 2.301628 0.252724 13.492061 -2.218851 -2.669848 -21.361723 -2.666144 0.473375 0.881966 1.166088 2.079308 -0.802616 6.661877 65.307161 10.425410 10.817368 6.168929 -0.818375 18.026998 7.598984 -1.365887 1.625427 -3.009127 -4.094206 -3.206988 -59.043618 37.942379 -17.908234 -3.124544 1.587907 -19.841048 -6.707283 -14.526049 3.533620
10.287968 100.107399 32.339611 3.822388 1.644791 2.904963 -4.922350 -2.840103 5.023208 1.548299 48.049458 0.456362 15.026495 33.892192 -7.837481 4.348779 -5.796830 1.709102 -6.956869 -26.768616 -5.135816 -4.031175 20.911902 2.310827 -5.506237 9.287972 2.488316 4.606790 -3.481726 -3.447335 -2.072260 5.513802 1.193658 0.111824 -4.675915 0.907117 -1.302661 13.914837 -1.803790 -2.944994 -21.445549 -3.146545 0.681289 -0.116892 1.456560 2.000716 -1.113911 6.454724 65.817700 10.726765 10.319083 6.237077 -0.419599 17.845872 7.679181 -2.668088 1.665620 -2.799663 -4.275990 -3.427293 -56.534047 38.402095 -20.627149 -2.930954 1.802065 -21.082188 -5.962683 -14.614977 3.310005
10.812817 100.718033 35.611675 4.811715 1.503496 4.318664 -6.279262 -10.301316 3.378056 2.657994 55.486812 0.569679 13.048837 30.213107 -7.769076 4.170854 -6.350986 2.148318 -8.711405 -23.242824 -6.184905 -3.862502 19.313934 2.832423 -4.498866 7.422074 1.315016 3.606955 -3.050418 -3.353373 -3.343186 5.544681 0.584219 1.996200 -4.287666 -0.371521 -2.610540 13.931877 -1.616538 -3.190462 -21.068454 -3.534103 0.809221 -0.573318 2.001964 1.945896 -1.218745 6.287489 65.908535 11.248151 10.087710 6.304319 -0.129857 18.165475 7.469582 -3.361817 2.179941 -2.784374 -4.208675 -3.498258 -53.780803 38.490862 -23.994351 -2.707593 1.825139 -21.719425 -5.112718 -14.155513 3.223117
11.425058 101.314056 38.991718 5.659656 1.003702 5.913925 -8.116267 -16.664060 0.624526 3.222447 58.468364 0.709860 11.173489 27.808777 -7.985556 3.886095 -6.984629 2.575709 -10.194516 -18.769021 -7.352830 -3.554831 16.940088 3.303535 -3.387380 5.776730 0.188756 2.422842 -2.716206 -3.278616 -4.376346 5.752863 -0.162623 3.713599 -3.519205 -1.603043 -3.636139 13.591264 -1.516657 -3.336367 -20.336339 -3.968632 0.819632 -0.593834 2.711177 1.823824 -1.160884 6.091842 65.838419 11.827455 9.750047 6.367766 0.040485 19.089540 7.101588 -3.448477 2.717256 -2.475609 -4.117309 -3.662629 -51.847932 38.152264 -27.057446 -2.554842 1.668608 -22.137687 -4.526547 -13.073751 3.012723
12.066553 101.773621 42.481529 6.508265 0.337118 7.620862 -10.563037 -21.753936 -3.012457 2.900686 57.700107 1.244010 9.976480 26.092645 -7.890482 3.434354 -7.653585 2.950813 -11.467469 -13.804751 -8.508202 -3.158182 14.224424 3.682070 -2.128052 4.192447 -0.930284 1.055012 -2.480659 -3.177785 -5.317954 6.083573 -0.925027 5.317129 -2.544070 -2.888832 -4.504873 12.968689 -1.381757 -3.399514 -19.478941 -4.409500 0.765387 -0.540733 3.468638 1.747600 -0.936476 5.842230 65.570617 12.309348 9.278475 6.471313 0.155897 20.458843 6.702887 -3.197176 3.072232 -1.949070 -4.056075 -3.925731 -50.792358 37.465924 -29.402432 -2.447314 1.446235 -22.910840 -4.061197 -11.998922 2.532229
12.668450 102.071693 45.916260 7.329759 -0.395148 9.361006 -13.190417 -25.365252 -6.795286 2.088198 53.811831 1.889392 9.517964 24.280025 -7.468730 2.775186 -8.344342 3.314243 -12.435708 -8.752309 -9.539794 -2.741063 11.444398 3.957151 -0.843505 2.812167 -2.030254 -0.420468 -2.324864 -3.058226 -6.178460 6.523732 -1.584444 6.783760 -1.505930 -4.163448 -5.219065 12.208689 -1.187564 -3.355527 -18.631647 -4.883564 0.686411 -0.616283 4.034477 1.859123 -0.616330 5.556238 65.074438 12.641406 8.730238 6.605286 0.233717 21.866792 6.343328 -2.697758 3.263354 -1.449387 -3.962619 -4.212252 -50.083088 36.807975 -31.318240 -2.293913 1.140972 -24.130335 -3.592380 -11.500258 1.785458
13.176544 102.194855 49.204082 8.017277 -1.066162 11.070837 -15.305317 -27.519382 -9.958736 1.127729 47.123526 2.259461 9.887368 22.806808 -6.989316 1.804444 -9.053613 3.640513 -12.956458 -4.077329 -10.334111 -2.435432 8.995641 4.150158 0.340924 1.503950 -3.170951 -1.811188 -2.205879 -2.927516 -6.910675 7.015638 -2.083476 8.104507 -0.667625 -5.257654 -5.815072 11.588349 -0.962393 -3.154744 -17.862703 -5.366461 0.587108 -0.835562 4.377122 2.267814 -0.322078 5.219243 64.442664 12.910897 8.158977 6.694234 0.279446 22.937293 6.059688 -2.068302 3.549363 -1.054531 -3.900315 -4.469487 -49.397351 36.435283 -33.070504 -2.030011 0.810979 -25.677726 -3.284985 -11.624277 0.915839
13.586757 102.155411 52.455448 8.590342 -1.601786 12.750297 -16.650539 -28.224981 -12.263175 0.158349 37.585946 2.188972 11.311928 22.882175 -6.799901 0.329146 -9.798506 3.988609 -13.088706 0.133312 -11.060615 -2.304076 7.015398 4.240777 1.508757 0.113084 -4.296857 -3.086062 -2.078382 -2.808409 -7.564122 7.492014 -2.437082 9.360783 -0.123139 -6.132460 -6.424576 11.191694 -0.712111 -2.762494 -17.169392 -5.751468 0.453188 -1.176894 4.409764 2.875947 -0.097381 4.815226 63.861000 13.147270 7.637001 6.743312 0.301090 23.428860 5.866739 -1.558795 3.873372 -0.640200 -3.883027 -4.629384 -48.757806 36.553035 -34.742840 -1.639819 0.418571 -27.417935 -2.992338 -11.939094 -0.040710
13.935081 101.953629 55.880112 9.213782 -2.001177 14.468365 -17.272774 -27.381936 -13.591631 -0.730779 25.685970 1.774303 13.817446 23.877860 -7.091986 -1.474918 -10.394875 4.485361 -13.073536 4.168972 -11.954095 -2.312496 5.452965 4.193011 2.779589 -1.467413 -5.224144 -4.383235 -1.845708 -2.613814 -8.273686 7.909413 -2.695719 10.643839 0.145100 -6.863747 -7.199382 11.028392 -0.434850 -2.176071 -16.526075 -6.065429 0.265718 -1.583359 4.152931 3.466991 0.064487 4.380736 63.574391 13.306520 7.131265 6.815650 0.264329 23.354571 5.882227 -1.065440 3.962933 -0.026957 -3.920672 -4.651125 -48.385398 37.135166 -36.221163 -1.290062 -0.072725 -29.231078 -2.547041 -12.054709 -0.898039
14.216558 101.553391 59.540688 10.107284 -2.315158 16.302090 -17.515814 -25.052646 -13.862310 -1.636527 12.251776 1.175797 17.560934 24.152418 -8.038847 -3.009991 -10.689354 5.300845 -12.997838 7.973101 -12.923809 -2.497257 4.349080 4.009191 4.037218 -3.244549 -5.954648 -5.764268 -1.452016 -2.273705 -9.176555 8.252001 -2.837611 11.993632 0.128509 -7.489782 -8.280552 11.161605 -0.116676 -1.470829 -15.871337 -6.554449 0.040174 -1.998804 3.578432 3.850302 0.043232 3.928247 63.859650 13.331859 6.353773 6.987661 0.180202 22.836226 6.210901 -0.299167 3.893899 0.891683 -4.036162 -4.611824 -48.219708 38.242393 -37.537474 -1.173283 -0.641668 -31.103506 -2.140600 -11.722409 -1.628232
14.441895 100.939598 63.514664 11.125628 -2.463354 18.113732 -17.678010 -22.024454 -13.453421 -2.680685 -1.037574 0.544585 22.428137 22.319062 -9.872614 -3.544875 -10.902790 6.535169 -12.817632 11.698005 -13.758182 -2.778624 3.629725 3.675688 5.202864 -5.318943 -6.581972 -7.045581 -1.182616 -1.907776 -10.146952 8.424504 -2.845845 13.281808 -0.040003 -7.880468 -9.534798 11.436232 0.191656 -0.799021 -15.240988 -7.232691 -0.205935 -2.207473 2.948266 4.180056 -0.052913 3.343772 64.464652 13.228986 5.367446 7.277657 0.113755 22.037783 6.834154 0.718389 4.003809 1.886393 -4.129108 -4.613016 -48.249187 39.577577 -38.532730 -1.228812 -0.947088 -32.938928 -2.147535 -11.310109 -2.387366
14.631258 100.177231 67.791161 11.949610 -2.433962 19.563337 -18.009556 -20.335696 -13.015984 -3.404032 -9.884788 0.125575 26.238265 18.525514 -11.649302 -2.405097 -11.525353 7.645332 -12.392062 15.400559 -14.427182 -2.835199 2.805161 3.311950 6.031822 -7.278207 -6.961643 -7.897276 -1.292120 -1.677859 -10.928890 8.422729 -2.719304 14.244716 -0.092148 -7.971956 -10.504544 11.568929 0.393679 -0.270383 -14.894984 -7.713280 -0.583862 -1.621148 2.676576 4.923025 -0.121407 2.746510 64.599835 13.476209 4.685821 7.531197 0.003100 20.780918 7.731641 1.388832 4.074625 2.306479 -4.201023 -4.697225 -48.541558 40.609631 -38.629378 -1.257756 -0.656220 -34.516632 -2.845504 -10.930488 -3.062789
14.820444 99.432091 72.130112 12.790619 -2.335007 20.576576 -19.007932 -20.659141 -13.919773 -3.406121 -11.554647 0.087377 27.983735 15.251225 -12.572460 -0.941061 -11.854891 8.065285 -12.238382 19.042270 -15.226215 -2.490611 2.020175 3.060729 6.420319 -8.270823 -6.599956 -8.427021 -1.516207 -1.775856 -11.660663 8.481533 -2.568492 15.168479 -0.325905 -7.968298 -11.408589 11.866841 0.601579 -0.049240 -15.015348 -7.775114 -0.792195 -0.994438 2.211716 5.673528 -0.011003 2.062856 64.374213 13.913793 4.702984 7.594126 0.102289 18.928381 8.968378 1.553916 3.290964 2.373879 -4.271221 -4.921338 -49.370634 41.258867 -37.791019 -1.288626 -0.186442 -35.242051 -3.503097 -10.369712 -3.387421
14.976129 98.725830 76.475952 13.297411 -2.308836 21.269821 -19.817899 -21.543673 -15.508415 -2.777829 -8.000467 0.419833 27.173800 14.805308 -12.080672 -0.780982 -12.533900 8.287214 -11.962443 21.962262 -15.649381 -2.098041 2.188325 2.935953 6.511044 -8.823940 -6.097177 -8.730034 -2.684351 -2.286893 -11.941878 8.568535 -2.421703 15.368252 -0.333961 -8.118765 -11.672485 11.748722 0.697187 0.024224 -15.140557 -7.881499 -0.815892 -0.681838 2.282571 6.224962 0.128943 1.608852 64.283384 14.053571 4.789973 7.611123 0.439529 16.934220 9.736842 1.473779 1.733097 2.104952 -3.707038 -5.112190 -49.741748 41.848278 -36.904976 -1.130024 -0.136593 -35.010082 -4.080426 -10.449905 -3.064473
14.929737 98.218605 80.825958 12.614607 -2.144761 21.563724 -18.953229 -22.721666 -15.373608 -1.805050 -2.459918 0.804772 23.600368 16.172485 -9.851969 -1.598327 -13.396677 8.394029 -10.342335 22.929515 -15.505398 -2.366682 4.531677 2.992903 5.889681 -8.900423 -6.190309 -8.535380 -4.824597 -3.172012 -11.391493 8.267141 -2.327599 15.098968 -0.048960 -8.206391 -11.239650 10.925624 0.682080 0.056029 -15.399141 -7.844875 -1.014805 -0.077386 2.714603 7.256566 0.174954 1.329440 63.845319 14.264941 4.645552 7.327889 0.859713 14.933403 10.103796 0.586681 0.014594 1.104216 -2.847383 -5.403000 -50.341262 42.182386 -35.031517 -0.746363 -0.086253 -33.863687 -4.231760 -11.097842 -2.771243
14.720976 98.075066 85.279564 10.201361 -1.761126 21.437462 -15.643849 -24.677524 -13.118669 -0.995362 2.239572 0.713849 19.086728 20.859806 -7.879134 -3.215725 -13.025713 7.366176 -6.849685 21.512326 -14.664817 -3.226794 9.089988 3.090098 4.284887 -7.408535 -6.976072 -7.895541 -8.357623 -4.348269 -9.708896 7.437739 -2.455672 14.572272 0.324338 -7.974943 -10.066099 9.752515 0.450701 -0.171424 -16.179294 -7.354894 -1.396166 1.102065 3.845047 8.801933 -0.059548 1.366223 62.849808 14.247836 4.186873 6.799549 1.049495 13.130454 10.393760 -0.775390 -1.404919 -0.901875 -2.213545 -5.604385 -51.015251 42.295562 -32.078292 -0.285217 0.097046 -32.024913 -4.051306 -12.193725 -2.326098
14.526270 98.149475 89.895218 7.289576 -1.384917 20.909618 -11.508512 -26.553609 -10.215355 -0.691146 5.771228 0.248095 17.749557 26.846635 -8.238642 -4.501716 -10.761994 5.499608 -3.046588 16.977658 -13.653375 -5.262421 17.801070 3.710311 2.479318 -3.126831 -7.875863 -7.253168 -13.949430 -6.025324 -7.723144 6.430589 -2.626176 14.151607 0.385530 -7.613555 -8.783481 8.997168 0.211711 -0.583063 -17.051859 -6.623691 -1.795286 2.128962 4.894961 9.553299 -0.171423 1.512126 62.113390 13.855365 3.983357 6.378123 1.036303 12.020554 10.521578 -1.646727 -2.194093 -2.255236 -2.078331 -5.502319 -53.003086 41.917508 -28.430923 -0.165838 0.530668 -29.842013 -3.469150 -13.188498 -2.063871
14.391833 98.376236 94.590485 4.840192 -1.147790 20.065343 -8.081384 -28.045038 -7.848479 -0.074353 10.418720 0.035931 15.934215 27.170724 -7.584847 -4.346478 -8.285130 4.435850 -0.290704 11.798353 -12.827935 -7.365388 27.368725 5.081008 0.611700 5.478171 -7.649867 -6.978806 -21.326079 -8.098914 -5.974489 5.603288 -2.739450 13.915021 0.090793 -7.002884 -7.757097 8.661211 -0.074144 -0.955028 -17.395388 -5.774751 -1.999962 2.556853 5.498208 8.872872 -0.222041 1.803853 62.166120 13.194808 3.977213 6.249590 0.835403 11.615854 10.060311 -1.733556 -2.758139 -1.999064 -2.049839 -5.088370 -56.194016 41.230757 -25.244318 -0.675195 1.131543 -27.019351 -2.794409 -13.527993 -1.599143
14.488096 98.679962 99.274368 2.640054 -0.966983 19.165054 -5.041498 -28.631716 -6.179165 0.940024 14.446151 -0.106988 12.859703 24.262818 -6.004112 -3.635680 -6.138698 3.889158 1.757344 5.396104 -12.459469 -9.851883 37.535660 7.357404 -2.384917 17.783346 -6.042536 -5.992921 -25.520809 -9.043543 -4.109564 4.881900 -2.914278 13.054156 -0.440289 -6.235009 -6.371899 8.778290 -0.503719 -1.398682 -17.596688 -4.958333 -1.943059 2.515443 5.785354 7.608301 -0.192186 2.449156 62.437857 12.478624 4.221000 6.184574 0.516832 11.990001 9.408294 -2.316849 -2.498176 -1.253193 -2.139311 -4.561256 -59.071727 40.792087 -22.833925 -1.444480 1.308420 -24.125231 -2.858661 -12.901459 -1.054867
14.657452 99.148529 103.460121 0.705926 -1.066518 18.267756 -2.254682 -27.829557 -4.581138 2.064659 17.071804 -0.615011 9.656401 19.437897 -4.443374 -1.800248 -5.510407 3.581112 3.003577 -1.428141 -12.597974 -12.558909 47.396106 10.281807 -7.234066 28.495866 -2.182231 -2.763113 -17.991377 -5.006850 -2.115697 4.452923 -2.881435 11.590031 -0.932683 -5.336706 -4.719322 9.176283 -0.789353 -1.758410 -17.643990 -4.254254 -1.989436 2.488693 5.889527 6.783303 -0.164757 3.172874 62.060345 11.678814 4.791621 6.094864 0.636648 12.501287 8.995607 -3.185372 -2.189005 -1.106703 -2.282065 -4.361245 -60.571561 40.879380 -21.401392 -2.137004 0.956161 -21.300036 -3.132364 -12.596342 -0.201322
14.918205 99.721962 107.326782 -0.871786 -1.396120 17.358107 0.300800 -25.769275 -3.320004 2.750999 17.763657 -1.086412 7.200409 15.944784 -3.347228 0.096536 -5.061174 3.371446 3.547840 -7.897796 -12.505569 -15.569375 55.841872 13.330926 -10.670939 34.577228 2.192236 -1.401576 -8.281344 -0.806538 -0.235628 4.247313 -2.598292 9.796678 -1.065993 -4.265519 -2.968622 9.525521 -0.909540 -2.108015 -17.564465 -4.060122 -1.997351 2.336147 5.947590 6.686525 0.183193 3.592222 60.790369 11.154442 6.003892 5.931540 0.785340 13.125476 8.640391 -3.505798 -1.813881 -1.843866 -2.127506 -4.321367 -60.757257 40.657881 -20.838208 -2.527282 0.687136 -19.002007 -3.276148 -12.629667 0.684256
15.232675 100.490082 111.214401 -2.037136 -1.878268 16.337955 2.580383 -22.564601 -2.306523 2.944401 17.005906 -1.457992 5.621584 13.285428 -2.524207 1.269364 -4.231595 3.049926 4.108634 -13.996686 -11.215552 -19.658601 62.851182 16.726497 -9.307246 30.369163 3.773995 -1.500866 -6.724041 -1.038851 1.330961 4.214513 -2.153050 7.849650 -0.887890 -2.786282 -1.423279 9.583622 -1.221618 -2.084111 -17.086784 -4.208081 -1.978019 2.311306 6.299140 6.878686 0.635573 3.717665 59.318970 10.776672 7.699934 5.804526 0.824480 13.605892 8.053857 -3.265234 -1.315890 -2.367323 -1.742611 -4.014109 -60.808691 40.026249 -20.504926 -2.784734 1.032688 -17.374230 -3.388582 -12.941139 1.539649
15.574982 101.310333 115.127792 -2.827692 -2.680661 15.228304 4.543982 -18.190227 -1.322280 2.866677 15.009879 -1.722815 4.291761 11.213136 -1.748541 2.478543 -3.263558 2.659550 4.897769 -18.980211 -9.237888 -22.263402 66.521493 18.652221 -7.407230 25.537460 4.361882 -1.586375 -6.364897 -1.794843 2.727320 4.450316 -1.616707 5.345881 -0.560427 -1.126404 0.291271 9.394681 -1.711682 -1.718100 -16.241599 -4.355372 -1.983758 2.741801 6.100648 6.670154 1.242537 3.746762 58.425198 10.491346 9.591494 5.733222 0.644671 14.094112 7.613207 -2.626912 -0.857375 -2.248514 -1.366171 -3.613420 -61.256344 39.642998 -19.831095 -2.963525 1.310383 -16.645712 -3.633123 -13.282460 1.955680
15.932878 102.032173 118.990692 -3.329617 -3.664376 14.106382 6.140959 -13.133878 -0.241893 2.640873 12.213533 -1.913331 2.978948 9.583560 -1.102893 3.768182 -2.298625 2.283387 5.753577 -22.788484 -7.060291 -21.878822 67.215953 17.781610 -5.945877 21.494704 5.165624 -1.583411 -6.081639 -2.398758 4.007320 4.887657 -1.131020 2.383665 -0.145219 0.584701 2.172246 8.997389 -2.308525 -1.281123 -15.234480 -4.389121 -1.889705 3.231023 5.358690 5.916334 1.971174 3.813962 58.189511 10.256074 11.478000 5.756051 0.319608 15.003288 7.127847 -1.972954 -0.480182 -1.869249 -0.939649 -3.219579 -61.888025 39.305543 -18.653183 -2.965516 1.356849 -16.934387 -4.060112 -13.436587 1.901875
16.304033 102.528938 122.827805 -3.685891 -4.672770 12.948103 7.413689 -8.004164 1.029645 2.420844 9.389206 -2.058119 1.592217 8.043954 -0.732047 5.000139 -1.482235 1.973394 6.550930 -25.599637 -5.139792 -18.780714 65.302980 14.393803 -4.988247 18.162465 6.112505 -1.420897 -6.040032 -2.920167 5.159258 5.459127 -0.730183 -0.624239 0.218281 2.221920 4.064582 8.661034 -2.951517 -1.057692 -14.450842 -4.238999 -1.689074 3.533842 4.505154 4.799368 2.605595 4.159175 58.246338 10.149376 13.186509 5.874566 -0.089948 16.449808 6.617660 -1.453862 -0.114402 -1.685190 -0.632067 -2.779687 -62.439830 38.728725 -16.992753 -2.859534 1.303528 -18.175677 -4.482350 -13.716467 1.489816
16.699085 102.737511 126.547264 -4.040275 -5.627836 11.819790 8.433063 -3.217010 2.305475 2.273185 6.985013 -2.133630 0.154077 6.347097 -0.608787 6.102797 -0.762815 1.699385 7.217012 -27.538144 -3.824382 -14.394964 60.850603 9.845949 -4.678112 15.810322 7.011583 -0.905368 -6.262098 -3.281228 6.167610 6.098982 -0.446750 -3.297103 0.445306 3.643208 5.811631 8.566417 -3.523170 -1.036338 -14.016781 -4.013944 -1.488307 3.528800 3.753523 3.684192 3.002645 4.727738 58.172556 10.088093 14.696377 6.037051 -0.543606 18.222963 6.248378 -0.792603 0.274811 -1.740439 -0.508414 -2.305323 -62.765834 37.982100 -15.270439 -2.763342 1.223530 -19.976924 -4.747938 -14.434467 0.991513
17.159370 102.686897 130.274231 -4.445280 -6.458534 10.707095 9.239228 1.221678 3.583389 2.236082 5.022268 -2.155028 -1.359839 4.410855 -0.675145 7.128241 -0.104983 1.408676 7.778341 -28.535012 -3.112259 -10.232011 53.735436 5.578919 -4.918486 14.738038 7.826986 0.045788 -6.671827 -3.491390 7.007834 6.720899 -0.236794 -5.431063 0.532871 4.808738 7.272194 8.711331 -3.972585 -1.072258 -13.843573 -3.729753 -1.354931 3.452729 3.006553 2.832650 3.123929 5.403595 57.811227 10.000118 16.036916 6.171770 -0.952058 19.952775 5.992297 -0.117854 0.545505 -1.872119 -0.553656 -1.820307 -62.940402 37.308606 -13.826725 -2.736939 1.152070 -21.736437 -4.879508 -15.432164 0.608359
17.667547 102.441154 133.933304 -4.898244 -7.126390 9.623474 9.866042 5.305902 4.785824 2.246432 3.341849 -2.164986 -2.847208 2.468288 -0.758134 8.200915 0.439049 1.106284 8.415352 -28.355608 -2.745656 -6.995548 43.850655 2.390208 -5.971136 15.465724 8.076923 1.347872 -7.138477 -3.658906 7.684677 7.275216 -0.053559 -7.002326 0.456876 5.765686 8.404821 9.096581 -4.324502 -1.106555 -13.832899 -3.430179 -1.188539 3.309837 2.016176 2.229330 3.031780 6.060436 57.392301 9.702176 17.198980 6.273072 -1.272541 21.444386 5.868816 0.351555 0.622460 -1.968081 -0.740684 -1.399720 -63.087061 36.931175 -12.776030 -2.752992 1.000976 -23.100022 -4.903281 -16.509757 0.287710
18.198298 102.028084 137.501068 -5.495755 -7.668324 8.513874 10.450560 9.056360 5.803515 2.292536 1.927100 -2.176361 -4.253386 0.574640 -0.698754 9.352106 0.911009 0.789221 9.322343 -26.831215 -2.422060 -4.598719 31.104572 0.242929 -8.521622 17.166593 7.973241 2.783704 -7.433401 -3.944830 8.298858 7.745597 0.139485 -8.092226 0.227413 6.535995 9.299668 9.702630 -4.586480 -1.170804 -13.938238 -3.156647 -0.927552 3.140098 0.920971 1.582277 2.787515 6.661261 57.268742 9.184554 18.250364 6.374837 -1.569151 22.646729 5.737866 0.525000 0.462306 -1.959998 -0.977616 -1.031931 -63.321826 36.791907 -12.019201 -2.809311 0.785884 -24.108361 -4.803020 -17.554818 -0.117564
18.753588 101.438377 141.219101 -6.381310 -8.176711 7.393439 11.204947 12.717943 6.229359 2.371615 0.766153 -2.072919 -5.447219 -1.396135 -0.363052 10.500943 1.460731 0.413911 10.609678 -24.402216 -1.849860 -2.784564 16.741122 -1.157579 -12.703904 18.412706 8.339369 4.104734 -7.401158 -4.372829 8.958454 8.115240 0.319130 -8.564498 -0.231101 6.952064 9.908843 10.689906 -4.612173 -1.347962 -14.201599 -2.963946 -0.607855 2.962883 0.052481 0.489317 2.231965 7.182690 57.862443 8.567154 18.981171 6.593507 -1.859072 23.608801 5.552590 0.180995 0.153991 -1.740871 -1.202202 -0.776212 -63.701680 37.009593 -11.536465 -2.846473 0.551594 -24.818165 -4.902192 -18.315862 -0.662362
19.377556 100.663040 145.031693 -7.335341 -8.563376 6.616631 11.973458 16.239359 5.896059 2.452311 -0.270596 -1.993531 -6.387685 -3.492901 0.361667 11.554038 2.007703 -0.022011 11.734521 -22.361381 -1.474401 -1.427321 3.574284 -1.992794 -16.211735 17.334813 9.139108 4.343654 -7.384476 -5.298236 9.582581 8.339536 0.339979 -8.586893 -0.703704 6.939252 10.271645 11.752541 -4.472410 -1.654984 -14.614811 -2.673339 -0.471931 2.560197 -0.392725 -0.723226 1.573378 7.554787 58.903680 7.692823 19.413782 6.921110 -2.180442 24.608896 5.227153 -0.418045 0.112296 -1.568588 -1.362001 -0.719163 -64.048376 37.490538 -11.400314 -2.930657 0.121193 -24.754187 -5.420163 -18.838273 -1.226264
20.140406 99.836700 148.774200 -7.887028 -8.596462 6.436627 12.394895 19.162577 5.166157 2.364755 -0.910255 -2.017759 -6.913842 -5.526426 1.304610 12.129316 2.107219 -0.182231 12.069058 -22.273462 -1.476728 -0.660245 -4.391548 -2.213439 -17.832348 13.999226 10.734760 3.029178 -7.329782 -6.185580 9.909047 8.405479 0.178172 -8.537544 -0.654908 6.856867 10.510781 12.031121 -4.472192 -2.010527 -15.191970 -2.571914 -0.541403 2.122644 -0.046378 -1.229739 1.315879 7.504145 59.374545 6.713970 19.987060 7.264431 -2.334481 25.525647 4.758036 -0.872395 0.371824 -1.935865 -1.700627 -0.846187 -64.284588 37.557237 -11.345595 -3.216599 -0.051655 -23.597335 -5.975323 -19.680790 -1.391202
20.983957 99.098961 152.535721 -8.031834 -8.542054 6.480848 12.539619 21.743598 4.622321 2.068574 -0.925837 -1.821086 -6.917349 -6.954321 1.463947 12.100757 1.513444 0.068914 11.863632 -23.635710 -0.761674 -0.523147 -5.421259 -2.086162 -18.786711 11.506637 11.889746 2.004060 -7.343610 -6.521006 10.014554 8.509219 0.032197 -8.775902 -0.270484 6.901443 10.803509 11.884210 -4.632624 -2.327303 -15.776614 -2.781179 -0.610090 1.731171 0.707857 -1.294766 1.451807 7.331169 59.488189 5.862054 20.611896 7.223283 -2.417866 26.269687 4.682492 -0.995508 1.015140 -2.515963 -1.915695 -0.969155 -64.058470 37.484241 -11.933053 -3.412815 0.098876 -21.650827 -6.570063 -20.729574 -1.073870
21.931633 98.427429 156.441986 -7.868194 -8.502415 6.437140 12.357093 24.068738 3.839269 1.619220 -0.012564 -1.585834 -5.911188 -7.960023 1.553258 11.924797 0.799570 0.532011 11.274299 -24.350211 -0.441418 -1.065630 -1.837788 -1.990859 -18.543418 10.513899 10.563651 2.142059 -7.825927 -6.654677 10.029297 8.594583 -0.141753 -9.414056 0.172413 7.277416 11.159557 11.490725 -5.064141 -2.606555 -16.181594 -2.638971 -0.727822 1.911776 0.900093 -1.401467 1.895605 7.480732 59.651507 5.369736 20.959430 6.918993 -2.577544 26.794098 4.886541 -1.371130 1.889403 -3.057961 -2.019081 -0.830848 -63.714778 37.764806 -12.657411 -3.421008 0.113877 -19.818968 -7.054427 -21.207201 -0.482360
23.149275 97.932472 160.603088 -6.704955 -7.804508 6.303003 10.748892 25.940263 2.831553 0.925623 1.130685 -1.281449 -3.534272 -7.863606 2.534769 11.320172 -1.221836 1.381250 9.074114 -24.901073 -2.057662 -1.720177 2.756011 -1.784937 -16.026405 12.925788 7.703199 3.268541 -8.478940 -6.590437 9.247123 8.275617 -0.220492 -9.757032 0.757832 7.699366 10.881074 10.524677 -5.352391 -2.855159 -16.555329 -2.108275 -0.769088 2.282366 0.750659 -0.265502 2.248916 7.818254 58.994864 4.893391 20.608767 6.448203 -2.373530 26.583401 5.305583 -2.126989 2.822032 -4.768498 -2.119766 -0.751560 -62.987755 37.446903 -12.547128 -3.100274 0.392265 -18.460313 -7.412668 -21.517087 0.217677
24.553047 97.910202 165.076721 -4.231462 -6.380539 6.057325 7.319892 27.232436 1.785087 0.028674 2.413924 -0.807116 0.133206 -4.568770 4.228637 10.335678 -5.519762 2.815508 5.060106 -26.171316 -4.389515 -1.885609 5.995033 -1.240947 -14.381383 19.872174 7.428798 4.509881 -8.670438 -5.639076 7.379496 7.587679 0.022877 -9.472156 1.265707 7.866314 9.535412 9.512147 -5.336353 -2.875235 -17.196647 -1.642321 -0.583957 2.498027 0.680132 2.168123 2.424903 8.074084 57.545873 4.097847 19.854506 6.049960 -1.892971 25.445719 5.588400 -2.124692 3.683923 -7.327388 -2.394245 -0.880586 -61.877136 36.625715 -11.731708 -2.497908 0.973942 -17.382331 -7.741351 -21.636350 1.060992
25.910271 98.109283 169.728989 -1.665994 -5.011987 5.708703 3.332512 26.308422 2.416659 -0.150466 6.808444 -0.345597 2.882716 0.744452 4.290206 9.876289 -12.141585 4.930524 1.430934 -27.280777 -5.302507 -2.081213 9.734783 -0.526876 -14.146278 23.641055 7.885512 5.316546 -8.156382 -4.621299 5.354086 6.985690 0.448230 -8.925840 1.052266 8.003194 7.766971 9.040347 -5.271453 -2.553175 -17.691063 -1.565001 -0.278155 2.683754 0.464466 3.221609 2.231767 8.062929 57.934715 3.843560 18.865420 5.924750 -1.571152 23.496582 5.776116 -2.130794 4.012096 -7.839458 -2.827052 -1.102525 -61.999475 36.328870 -10.839543 -2.475603 1.295799 -16.775108 -7.687189 -20.273997 1.909219
27.155130 98.479820 174.418488 0.536016 -3.897225 5.401787 -0.282077 23.047830 3.332189 0.157072 14.148030 0.165995 4.482709 9.352492 3.159555 10.444420 -19.917523 7.806608 -1.395763 -27.128791 -5.304553 -2.371424 12.476355 0.243274 -13.896573 23.967324 7.260524 5.806790 -6.861386 -3.892745 3.459566 6.467244 0.875962 -7.889270 0.444650 7.396783 5.756680 9.035443 -4.780702 -2.066907 -17.931103 -1.590796 -0.116001 2.810464 0.152362 2.969463 1.829136 7.905232 59.700300 4.182163 17.804534 6.009061 -1.527402 21.707660 5.897952 -2.775678 3.924371 -6.677612 -3.278047 -1.139722 -62.989701 36.899951 -10.265918 -2.726206 1.445994 -16.782422 -7.425985 -18.578048 2.476231
28.344954 99.002808 178.922272 2.707619 -2.771780 5.165046 -4.022459 17.077950 4.313087 1.078177 24.242822 0.370308 6.666884 21.031094 1.001882 10.409717 -24.130262 9.620892 -4.124197 -26.180165 -5.198334 -2.775366 14.178298 1.065973 -12.220546 22.120831 5.732382 6.057372 -5.093368 -3.385032 1.355803 5.927406 1.250292 -5.982144 -0.354822 6.174766 3.230117 9.325099 -3.954513 -1.830814 -18.108325 -2.017858 -0.089362 2.948940 0.097222 2.246621 1.064469 7.780142 61.806072 4.573330 16.466070 6.141568 -1.330175 20.389212 6.023830 -4.032835 3.586898 -5.032872 -3.446498 -1.382232 -63.693495 37.538438 -10.294498 -3.118175 1.620838 -17.215852 -7.024945 -17.127761 2.995712
29.314053 99.567291 183.116043 4.621693 -1.746637 5.036140 -7.126597 9.353355 5.254782 1.781191 35.256529 -0.061212 11.763508 32.503179 -2.430745 7.048939 -17.283001 6.587445 -6.612423 -25.052073 -5.317975 -3.234829 15.925246 1.862354 -9.666733 17.295910 3.914493 5.181249 -4.213386 -3.418271 -0.778243 5.458541 1.433925 -3.569151 -1.142744 4.707909 0.858843 10.074985 -3.262093 -1.880641 -18.832293 -2.168007 -0.107231 2.733733 -0.053612 2.090189 0.257429 7.917278 62.716679 5.073891 15.513327 6.205892 -1.050246 19.737889 6.514554 -4.734947 3.459701 -4.220813 -3.740904 -1.710632 -63.200069 38.180400 -10.935532 -3.082441 1.839282 -18.074744 -7.201635 -15.745350 3.294990
30.089199 100.005890 187.012405 6.098205 -1.069192 5.235562 -8.943801 1.483804 5.524392 2.053471 45.229680 -0.348231 16.472639 39.343624 -5.517259 4.418769 -7.544133 1.994822 -8.609865 -23.281564 -5.544780 -3.485777 16.710944 2.539322 -7.736420 13.153866 2.350479 4.192111 -3.454900 -3.355088 -2.698494 5.210534 1.305024 -1.059045 -1.678853 3.211542 -1.075483 10.950298 -2.676443 -2.336031 -19.631106 -2.508457 0.122284 2.005343 0.198347 2.213949 -0.300656 7.873351 62.861641 5.513467 15.085281 6.168699 -0.646141 19.589565 7.062245 -5.207679 3.674565 -4.064921 -4.038089 -2.188121 -61.294863 38.862688 -12.574268 -2.931376 2.039125 -19.090870 -7.253039 -14.668899 3.471392
30.753199 100.470390 190.711090 7.113120 -0.834265 6.080308 -10.094409 -5.817351 4.232373 3.118623 54.132870 -0.296712 15.430413 36.313992 -5.250181 4.117134 -6.727987 1.717822 -10.197960 -20.652892 -6.416519 -3.577031 16.594837 3.128080 -6.248367 9.886691 1.063580 3.133607 -2.879482 -3.194131 -4.196210 5.222916 0.882046 1.219063 -1.699055 1.677522 -2.623674 11.311485 -2.200591 -2.740919 -19.859229 -3.086381 0.302406 1.081314 0.723330 2.609182 -0.525983 7.470654 62.690026 5.986866 14.806286 6.153339 -0.275652 19.457022 7.257311 -5.337207 4.027185 -4.061165 -4.048648 -2.702314 -58.278063 39.438670 -15.341891 -2.792363 2.158387 -19.838294 -7.164862 -13.759792 3.707786
31.363621 100.937607 194.259888 7.948028 -1.016007 7.395636 -11.444638 -12.148739 1.508934 4.125904 59.515597 -0.414569 13.165875 31.870606 -5.425542 3.859155 -7.373454 2.204143 -11.550277 -17.045660 -7.617410 -3.450530 15.440951 3.601953 -4.878436 7.316254 -0.040684 1.965441 -2.418561 -3.057795 -5.424252 5.457790 0.243459 3.199971 -1.385805 0.177224 -3.814764 11.390662 -1.870635 -3.011550 -19.656119 -3.764730 0.450994 0.511736 1.443258 2.827886 -0.656066 6.921413 62.664679 6.508795 14.360267 6.121837 0.043395 19.194697 7.125654 -5.176128 4.167353 -3.812441 -3.934985 -3.181206 -55.050049 39.656472 -18.849053 -2.711785 2.084950 -20.039947 -7.128479 -12.640610 3.961337
31.934088 101.382187 197.713058 8.786977 -1.468740 8.942266 -13.409011 -17.295875 -2.305883 4.330234 61.071057 -0.227518 11.266627 28.476425 -6.594989 3.475154 -8.048596 2.694529 -12.759322 -12.537875 -8.933196 -3.043441 13.170823 3.927126 -3.562355 5.412095 -0.993896 0.620793 -2.172265 -2.977249 -6.516540 5.826751 -0.472668 4.902586 -0.753195 -1.315677 -4.735849 11.128502 -1.618462 -3.123682 -19.114361 -4.441051 0.520637 0.185146 2.124398 2.928476 -0.646861 6.273034 62.739225 7.011168 13.694272 6.107634 0.243133 18.903139 6.814003 -4.658336 3.977774 -3.350851 -3.717440 -3.612087 -52.091600 39.242629 -22.537870 -2.684796 1.881050 -20.017541 -7.104942 -11.246454 4.090344
32.453339 101.754448 201.198822 9.517461 -2.069696 10.524679 -15.597257 -21.160849 -6.393566 3.766687 59.265616 0.376707 10.120666 25.817477 -7.552057 3.046742 -8.589411 3.117042 -13.561862 -7.511948 -9.993250 -2.489031 10.270574 4.143626 -2.370705 3.921785 -2.057567 -0.845971 -2.132223 -2.898821 -7.439831 6.289093 -1.112854 6.419419 0.041175 -2.786587 -5.431717 10.600199 -1.323166 -3.118062 -18.376659 -5.076057 0.551461 -0.093303 2.797826 3.068910 -0.444785 5.514440 62.742980 7.432432 12.822644 6.135852 0.360422 18.738943 6.457992 -4.017840 3.636505 -2.725809 -3.449125 -4.096540 -49.731011 38.231506 -25.952442 -2.720545 1.609013 -20.068196 -7.065325 -9.904260 4.006268
32.907192 102.031433 204.779144 9.960147 -2.666222 11.983682 -17.224133 -23.854101 -9.775995 2.793379 54.388674 1.101677 9.970305 23.487976 -7.656773 2.497550 -9.122202 3.482368 -13.723352 -2.529834 -10.599753 -1.999680 7.374275 4.278656 -1.447377 2.655517 -3.256573 -2.259363 -2.174204 -2.792735 -8.115297 6.791899 -1.582491 7.844677 0.707077 -4.194295 -5.989630 10.090208 -0.936156 -3.000829 -17.666651 -5.629411 0.574699 -0.372620 3.504806 3.370714 -0.205870 4.758388 62.601398 7.906777 11.773700 6.232730 0.442636 18.719673 6.124147 -3.267571 3.394306 -1.969573 -3.320169 -4.627889 -48.112873 36.938661 -28.833223 -2.752282 1.303556 -20.399650 -6.982986 -9.069685 3.730571
33.280052 102.154282 208.470840 10.147559 -3.093508 13.349295 -18.030366 -25.499764 -12.104560 1.633273 46.694353 1.630311 10.898576 21.796283 -7.466427 1.563569 -9.763241 3.819773 -13.366218 1.879841 -11.094219 -1.742742 5.128361 4.319305 -0.717376 1.270098 -4.252861 -3.482983 -2.171945 -2.698621 -8.565251 7.279098 -1.920444 9.140953 0.997149 -5.465797 -6.464847 9.892848 -0.548671 -2.744973 -17.155444 -6.059538 0.659532 -0.766762 4.172707 3.824015 -0.071831 4.110918 62.425090 8.542534 10.614667 6.367059 0.523282 18.721171 5.887546 -2.583065 3.437574 -1.225880 -3.318348 -5.081850 -46.905012 35.745918 -31.313238 -2.638690 0.985976 -21.197410 -6.773150 -9.142575 3.154701
33.560333 102.098129 212.161926 10.238127 -3.296683 14.653159 -18.084702 -26.053001 -13.256447 0.520863 36.359232 1.725036 12.399529 21.558489 -7.985908 0.168558 -10.338802 4.234962 -12.755547 5.502334 -11.732619 -1.720770 3.747392 4.262001 0.044946 -0.307175 -5.015823 -4.510053 -2.050913 -2.638577 -8.894138 7.690178 -2.200256 10.276434 0.998001 -6.527000 -6.961693 9.973866 -0.232388 -2.327805 -16.816213 -6.334587 0.805412 -1.317221 4.650342 4.328732 -0.073118 3.586740 62.454115 9.391220 9.469127 6.480948 0.575882 18.543943 5.708413 -1.993995 3.592854 -0.614968 -3.362672 -5.343166 -45.820794 34.891913 -33.523084 -2.364103 0.678027 -22.465227 -6.355783 -10.072398 2.388159
33.779301 101.844528 215.798111 10.478296 -3.377716 15.961908 -17.654167 -25.242508 -13.213411 -0.531367 23.920021 1.463428 14.402390 22.355806 -9.337990 -1.571444 -10.714053 4.817073 -12.229576 8.536561 -12.395302 -1.916722 3.188496 4.121894 1.127770 -2.113177 -5.728343 -5.470442 -1.793211 -2.517682 -9.290107 8.012364 -2.430097 11.360918 0.859010 -7.383665 -7.663617 10.239027 0.056348 -1.812101 -16.500352 -6.598994 0.959267 -2.070298 4.788966 4.755222 -0.187536 3.114666 62.876002 10.474707 8.356122 6.555878 0.575407 18.047238 5.637930 -1.316625 3.562650 -0.065892 -3.450423 -5.483842 -45.038992 34.431299 -35.330207 -1.991176 0.326873 -24.094523 -5.849643 -11.307813 1.587877
33.979946 101.366188 219.531876 11.067652 -3.386246 17.280730 -17.314181 -23.040665 -12.421352 -1.602746 10.401973 0.967928 17.248750 22.542387 -11.033222 -3.159757 -10.828142 5.694787 -11.746280 11.355626 -13.044748 -2.313390 3.150416 3.869713 2.227753 -4.220454 -6.304644 -6.518756 -1.417790 -2.248438 -9.913949 8.210028 -2.570446 12.485816 0.631315 -7.999179 -8.698606 10.655828 0.341708 -1.285792 -16.115428 -7.032031 1.085595 -2.887565 4.705023 4.922854 -0.484943 2.646351 63.860752 11.511598 7.057349 6.689175 0.553167 17.250403 5.817656 -0.235920 3.253742 0.601289 -3.600145 -5.647967 -44.906644 34.304948 -36.492986 -1.706082 -0.082697 -26.104536 -5.510958 -12.383813 0.725692
34.193226 100.628281 223.551437 11.865155 -3.261449 18.469689 -17.342070 -20.443920 -11.579208 -2.681879 -2.219305 0.416391 20.713851 20.925224 -13.180400 -3.766168 -10.963102 6.871562 -11.447878 14.266542 -13.679089 -2.728404 3.141793 3.483177 3.418941 -6.565911 -6.664152 -7.542138 -1.150515 -1.928896 -10.682896 8.215400 -2.602172 13.559648 0.340735 -8.318510 -9.883500 11.103285 0.564985 -0.815252 -15.671420 -7.487939 1.132930 -3.336436 4.668235 4.928514 -0.778665 2.123659 65.117493 12.342487 5.685231 6.916458 0.553375 16.316634 6.315763 1.028601 3.030125 1.346445 -3.803224 -5.894791 -45.761237 34.297461 -36.677606 -1.594021 -0.389821 -28.419075 -5.450450 -13.239609 -0.430064
34.384876 99.761971 227.790024 12.463848 -2.978600 19.270107 -17.648805 -19.541683 -11.255488 -3.357344 -9.490176 0.071821 22.864863 17.808764 -15.228130 -2.844077 -11.321911 7.725169 -11.009511 17.222374 -14.127135 -2.893264 2.853753 3.108569 4.227919 -8.620723 -6.920264 -8.180496 -1.353454 -1.842620 -11.309544 8.082259 -2.534112 14.303705 0.069005 -8.370490 -10.732316 11.461570 0.691858 -0.422179 -15.595179 -7.716644 1.034937 -3.060685 4.754798 5.431719 -1.095663 1.602943 65.773316 13.048534 4.609878 7.111441 0.497589 15.140323 7.209391 1.933458 2.561154 1.525305 -4.030806 -6.250491 -47.277136 34.057903 -35.612671 -1.472095 -0.365076 -30.757894 -5.790794 -13.761931 -1.762028
34.532200 99.040131 232.239410 12.784057 -2.631503 19.683558 -18.103082 -20.354101 -12.032783 -3.331533 -10.124693 0.160587 23.345312 15.393887 -16.439819 -1.858004 -11.600609 8.051061 -10.535128 20.327753 -14.397365 -2.494429 2.175091 2.724349 4.223175 -9.176102 -6.972062 -8.294739 -1.828824 -2.020469 -11.731201 7.989452 -2.456042 14.795227 -0.207242 -8.519676 -11.165226 11.782235 0.856166 -0.183320 -16.040190 -7.574950 1.062247 -2.708817 4.230109 6.356612 -1.413783 1.150224 65.711723 13.454548 4.098742 7.049422 0.575562 13.665255 8.479052 2.137164 1.529270 1.126949 -4.109543 -6.703071 -48.934234 33.626466 -33.745753 -1.333558 -0.326808 -32.618956 -5.834780 -13.750338 -2.456411
34.607513 98.471115 236.810638 12.525162 -2.386781 19.839972 -17.990798 -21.659957 -13.282870 -2.674692 -5.959217 0.549486 21.975107 16.388426 -15.926334 -2.279722 -12.422588 8.225449 -9.520601 22.226272 -14.578352 -2.329794 3.023728 2.627609 3.815805 -9.167250 -7.178065 -8.119903 -3.494876 -2.632371 -11.624000 7.889044 -2.436548 14.776422 -0.131421 -8.775856 -10.981342 11.560147 0.871395 -0.028951 -16.529806 -7.659268 1.051744 -2.186113 4.282565 7.672743 -1.646402 0.937846 65.141836 13.505663 3.866721 6.788578 0.944336 12.091707 9.200397 1.208730 0.156770 0.429167 -3.447866 -6.960011 -49.885605 33.657981 -32.108993 -0.963305 -0.497647 -33.699166 -5.462163 -14.398654 -2.612556
34.451744 98.277512 241.385727 10.504593 -1.974593 19.479052 -15.594116 -23.725331 -12.431533 -1.932232 -0.832278 0.524667 19.401205 21.684077 -14.500182 -4.093912 -12.209220 7.311096 -6.444070 20.432780 -14.231035 -3.578983 8.244992 2.871804 2.657225 -8.626947 -7.921837 -7.557889 -6.380109 -3.623399 -10.361719 7.287172 -2.552380 14.448349 0.218322 -8.860921 -9.959315 10.674354 0.758970 -0.027583 -17.210957 -7.493668 0.706599 -1.094646 5.057642 9.616961 -1.941691 0.950983 63.914900 13.411426 3.757230 6.203723 1.206228 10.427633 9.521076 -0.495284 -1.059312 -0.784478 -2.956577 -7.110726 -51.056089 34.237540 -29.860073 -0.499086 -0.493847 -33.157837 -4.756160 -15.144445 -2.220299
34.135212 98.337646 246.207474 7.567739 -1.580451 18.615541 -11.655012 -25.777630 -9.930266 -1.474217 3.493800 0.169368 18.313210 27.544606 -14.050506 -5.729333 -10.208858 5.484492 -2.590190 17.514963 -13.362578 -4.817470 14.832861 3.281299 0.600367 -4.972506 -8.910348 -6.997768 -11.265910 -5.124201 -8.560707 6.405420 -2.736141 14.242277 0.375098 -8.726335 -8.733607 9.776566 0.595269 -0.167206 -17.799544 -7.098734 0.256334 0.074642 6.040152 10.760594 -1.992280 0.949802 62.978960 12.984153 3.949677 5.698842 1.215601 9.238070 9.624113 -1.792777 -1.630113 -1.364418 -2.788452 -7.024167 -53.546345 34.888965 -27.029154 -0.527912 -0.185623 -31.020995 -3.910600 -15.713040 -1.610782
33.760929 98.545776 251.137283 4.747078 -1.410584 17.272099 -7.731099 -27.520844 -7.297975 -0.636874 8.947269 0.016244 15.794692 27.598593 -12.617895 -5.477696 -8.002405 4.396196 0.692728 13.558775 -12.345977 -6.224693 23.168462 4.188064 -1.399147 2.245153 -9.000438 -6.789265 -18.263756 -7.204509 -6.777382 5.638012 -2.800352 14.038020 0.273977 -8.322871 -7.572864 9.077099 0.341651 -0.271561 -17.922857 -6.348077 0.008239 0.721440 6.900507 10.481330 -1.842309 1.020035 62.743859 12.231923 4.295613 5.469632 0.987775 8.986067 9.207748 -2.052099 -1.783194 -0.906639 -2.478576 -6.574021 -56.854659 35.662061 -24.557534 -1.085083 0.360715 -27.590387 -3.304123 -16.035719 -0.496540
33.504505 98.800049 255.903870 2.359531 -1.317890 16.007404 -4.396884 -28.108157 -5.624475 0.523359 13.462334 -0.147811 12.332864 24.697325 -10.375742 -4.845104 -5.657658 3.797471 3.198688 8.239264 -11.847097 -8.175626 32.777364 5.916995 -3.449268 13.407752 -7.824238 -6.373076 -23.727723 -8.979851 -4.993900 4.930314 -2.970782 13.098498 0.057340 -7.769281 -6.219835 8.745288 -0.096180 -0.342247 -17.818472 -5.544300 -0.029732 0.881232 7.438961 9.521973 -1.539256 1.352615 62.921702 11.802414 4.838681 5.368797 0.583285 9.683557 8.846938 -2.515445 -1.349962 -0.222662 -2.090477 -5.958700 -59.701201 36.648698 -22.620858 -1.731175 0.720380 -24.053401 -3.619880 -15.520975 0.457633
33.344795 99.178902 260.319427 0.053383 -1.315271 14.947160 -1.095588 -27.508482 -3.724897 1.772932 16.523344 -0.665474 8.519417 19.507231 -8.668833 -3.207120 -4.510768 3.462553 5.198141 1.493097 -11.912413 -10.663462 43.261383 8.370038 -7.006113 24.810647 -4.940593 -3.750316 -19.970789 -6.683304 -2.917820 4.429781 -3.011494 11.336585 -0.467053 -6.902556 -4.537509 9.062592 -0.462536 -0.340987 -17.791951 -4.933227 -0.121334 0.980688 7.628804 8.449861 -1.490728 1.804001 63.056246 11.489328 5.590321 5.331231 0.703454 10.685617 8.604596 -3.188984 -0.765496 0.178278 -2.071019 -5.522285 -61.385380 38.316787 -21.503989 -2.444154 0.632443 -20.572457 -4.250399 -14.603112 1.946138
33.341614 99.655975 264.510773 -2.150522 -1.410606 13.870517 2.341580 -25.675609 -1.208107 2.640557 17.437507 -1.239579 5.627114 15.765662 -8.463425 -1.111102 -3.770348 3.220818 6.602976 -5.664533 -12.007719 -13.570618 52.819477 11.193886 -10.608741 33.421049 -1.490307 -1.626700 -9.141377 -1.859057 -0.708525 4.162204 -2.726888 9.070593 -0.969617 -5.723258 -2.529555 9.732474 -0.679573 -0.435387 -18.052476 -4.682771 -0.253740 0.933678 7.327674 7.801845 -1.243355 2.329294 62.511523 11.238014 6.814930 5.288820 0.890999 11.945201 8.537095 -3.344725 -0.166144 -0.218216 -2.237365 -5.218555 -61.804314 39.760876 -20.969545 -3.028838 0.228692 -18.064959 -4.920949 -13.746645 3.016946
33.501869 100.348213 268.608246 -3.747999 -1.677558 12.606886 5.182864 -22.637350 1.196646 3.030413 16.843124 -1.767712 3.858164 13.069267 -8.777695 0.285494 -2.692957 2.941134 7.409240 -12.338787 -11.173513 -17.371879 60.943059 14.233247 -10.204328 31.283107 -0.133385 -1.693253 -6.686752 -1.475043 1.100126 4.177266 -2.175908 6.777562 -1.024789 -4.044292 -0.748004 10.073590 -0.964683 -0.464523 -18.109995 -4.751357 -0.336039 0.682911 7.321961 7.539089 -0.672166 2.717029 61.347233 11.170112 8.773154 5.271460 0.971092 12.929978 8.290627 -2.718678 0.260032 -0.876135 -2.091586 -4.721111 -61.681278 40.219035 -20.623949 -3.273819 0.552354 -16.576753 -5.401961 -13.586142 3.816011
33.767860 101.163948 272.544800 -4.492070 -2.270803 11.077757 6.898402 -18.334606 2.742071 3.072830 14.883135 -2.107730 2.541970 11.200433 -8.396818 1.549928 -1.836811 2.658635 7.582129 -17.667299 -9.737160 -20.117872 65.435632 16.347972 -8.448300 26.954724 1.492967 -1.826125 -6.391886 -2.122603 2.442300 4.495957 -1.548209 4.153346 -0.740961 -2.031626 0.950678 10.048204 -1.489876 -0.372097 -17.732604 -4.667435 -0.557860 0.899314 7.056603 6.942944 0.181770 3.217369 60.306984 11.176635 11.191596 5.393532 0.728584 13.637438 8.307220 -1.221411 0.320577 -1.157701 -2.004155 -3.997658 -62.132794 40.109377 -19.466544 -3.360275 0.941879 -16.145351 -5.487021 -13.881738 4.150990
34.043152 101.927773 276.340424 -4.676040 -3.070050 9.500681 7.741448 -13.315600 3.451625 2.890918 12.073850 -2.286156 1.409751 9.782278 -7.365876 2.828267 -1.184768 2.423174 7.541774 -21.683559 -7.956074 -20.069683 66.419519 15.926244 -6.861864 23.257764 3.969516 -1.822650 -6.199747 -2.728721 3.463942 5.001437 -0.997595 1.343243 -0.402921 0.049756 2.584181 9.780787 -2.136773 -0.350100 -17.015622 -4.359740 -0.803914 1.439962 6.456515 5.769558 1.070977 3.788344 59.782701 11.008641 13.547549 5.650104 0.296457 14.650608 8.366449 0.625182 0.155470 -1.136742 -1.908447 -3.338358 -63.034150 39.645850 -17.546856 -3.268107 1.157220 -16.671632 -5.297318 -14.165150 3.769202
34.286575 102.518784 280.050293 -4.671488 -3.908491 8.025746 8.184614 -8.182356 3.713379 2.596256 9.041429 -2.353039 0.410997 8.575308 -6.110525 4.047033 -0.679803 2.212564 7.704989 -24.686381 -5.942722 -17.320996 64.520111 12.998897 -5.963402 19.981853 6.624295 -1.707621 -6.191911 -3.307562 4.306942 5.577353 -0.549348 -1.376095 -0.195739 1.947019 4.119698 9.520583 -2.794952 -0.501108 -16.347470 -3.884961 -0.977694 1.975239 5.735065 4.327280 1.717110 4.507251 59.536149 10.720694 15.594170 5.975592 -0.173539 16.319873 8.413543 2.330702 -0.057669 -1.185043 -1.828751 -2.782323 -63.809981 38.962311 -15.349882 -3.138882 1.236021 -17.814363 -4.951506 -14.284777 2.943979
34.531384 102.850487 283.696747 -4.700436 -4.699037 6.730321 8.489180 -3.284141 3.828564 2.325415 6.337430 -2.368655 -0.557383 7.176913 -4.980560 5.099821 -0.342187 2.000130 8.137789 -26.829180 -3.928062 -13.369268 60.144440 9.023585 -5.632046 17.314880 8.944254 -1.379580 -6.423944 -3.750630 5.041475 6.162886 -0.192207 -3.744181 -0.099270 3.470623 5.494524 9.427352 -3.306575 -0.813117 -15.991366 -3.388805 -1.051786 2.325106 5.021492 3.082513 2.050836 5.279668 59.062679 10.505635 17.428554 6.277182 -0.624226 18.492726 8.467285 3.695495 -0.250691 -1.546339 -1.846060 -2.290507 -64.071254 38.232636 -13.498406 -3.039546 1.239773 -19.004275 -4.576078 -14.446413 2.077363
34.805531 102.910927 287.255554 -4.862937 -5.464541 5.572008 8.764137 1.098019 3.800434 2.143329 4.186696 -2.348638 -1.555922 5.656414 -3.926477 6.116582 -0.005710 1.717347 8.818143 -28.034502 -2.119634 -9.540392 53.296014 5.270893 -5.971989 15.696911 10.134089 -0.668779 -6.842379 -3.983337 5.740560 6.755481 0.087011 -5.692457 -0.089543 4.714293 6.725393 9.524863 -3.719658 -1.203856 -15.894333 -2.903429 -1.117671 2.464390 4.372945 2.133725 2.152718 6.056586 58.213168 10.376473 19.140615 6.525605 -1.002155 20.791281 8.595566 4.923214 -0.376854 -2.101091 -2.006257 -1.782813 -64.018469 37.546335 -12.195424 -3.003865 1.185529 -19.931442 -4.219032 -14.649535 1.460159
35.153416 102.728699 290.811371 -5.179060 -6.176226 4.573384 9.018677 5.134126 3.562075 2.064823 2.590767 -2.336118 -2.570992 3.762970 -2.821191 7.234670 0.501127 1.365835 9.669481 -27.977102 -0.740629 -6.446715 43.676511 2.392673 -7.558955 15.488743 9.867664 0.491105 -7.315630 -4.093034 6.431170 7.311743 0.289751 -7.216943 -0.209061 5.769282 7.814702 9.803562 -4.095430 -1.578520 -15.946519 -2.455909 -1.193484 2.505573 3.579634 1.397134 2.098936 6.762268 57.190670 10.206489 20.706066 6.740431 -1.315886 22.834101 8.841458 6.005224 -0.343506 -2.555531 -2.259717 -1.259023 -64.041366 37.010144 -11.388401 -3.030835 0.994645 -20.527944 -3.724055 -14.833276 1.166479
35.606968 102.342674 294.471893 -5.664454 -6.789350 3.787134 9.337541 8.901712 3.062186 2.039824 1.352981 -2.331280 -3.503367 1.651207 -1.750569 8.450575 1.114233 0.958636 10.555135 -26.533332 0.028955 -4.203898 31.529344 0.482745 -10.271630 15.588837 9.097236 1.842661 -7.435276 -4.288584 7.135727 7.756017 0.398029 -8.296428 -0.495287 6.623046 8.764078 10.256790 -4.427849 -1.943078 -16.092678 -2.126037 -1.205534 2.519659 2.649343 0.686010 1.905293 7.321198 56.246208 10.165030 22.085976 6.823507 -1.631327 24.460388 9.195254 6.686420 -0.195554 -2.716330 -2.512036 -0.755718 -64.382912 36.719216 -10.939058 -3.036829 0.791395 -20.944514 -3.090124 -15.063611 0.968402
36.160381 101.762711 298.218445 -6.388432 -7.349155 3.179257 9.777699 12.611008 2.231985 2.124795 0.382564 -2.272209 -4.225159 -0.580598 -0.790403 9.759151 1.722279 0.508339 11.517666 -24.071556 0.060269 -2.563465 17.983686 -0.810385 -13.349002 14.526717 8.649583 3.042882 -7.312581 -4.790340 7.890270 8.064582 0.392115 -8.823331 -1.042780 7.184240 9.552473 11.041558 -4.659764 -2.359121 -16.394887 -1.915200 -1.164174 2.544320 1.996545 -0.165780 1.503125 7.717871 55.631912 10.271989 23.205872 6.739140 -1.925563 25.728535 9.559835 6.688505 -0.141945 -2.680058 -2.731879 -0.329680 -64.971934 36.704598 -10.718047 -3.029011 0.673784 -21.293282 -2.727609 -15.378780 0.543372
36.834686 101.013252 302.128540 -7.115642 -7.769170 2.904426 10.216710 16.284027 1.123304 2.192428 -0.698126 -2.279100 -4.597271 -2.730565 0.083535 11.007407 2.215119 0.055543 12.279945 -21.651879 -0.880460 -1.294522 5.326285 -1.666473 -15.535399 12.039421 8.736914 3.378970 -7.474906 -5.832645 8.565745 8.165580 0.206826 -8.913857 -1.558430 7.483474 10.111097 11.776213 -4.823849 -2.745993 -16.741866 -1.644860 -1.264133 2.502234 1.601658 -0.848936 1.004840 7.927873 55.366719 9.996827 23.932115 6.735425 -2.303518 26.777561 9.809863 6.335247 -0.156018 -2.777925 -2.854010 -0.193232 -65.442443 37.000688 -10.767220 -3.041503 0.434509 -21.155886 -2.753190 -15.807610 0.005669
37.669651 100.201271 306.198975 -7.522528 -8.036757 3.079894 10.520285 19.988209 0.004776 1.959950 -1.942458 -2.324097 -4.481617 -4.418957 0.984859 11.877189 2.207665 -0.099813 12.575386 -20.772397 -2.100716 -0.468085 -3.059128 -2.010545 -16.517069 9.267774 9.831986 2.656207 -7.466491 -6.638097 8.955342 8.141734 -0.083944 -8.769284 -1.674534 7.584776 10.405206 11.982732 -4.970882 -3.085519 -17.201106 -1.463210 -1.451575 2.444846 1.888741 -1.042398 0.706731 7.875624 55.167714 9.073600 24.438321 6.860480 -2.516610 27.658324 9.824580 5.668854 -0.058549 -3.374167 -3.030292 -0.292412 -65.505233 37.229301 -11.020272 -3.170600 0.396082 -20.301477 -3.072606 -16.735599 -0.321961
38.574909 99.387650 310.275177 -7.737452 -8.359111 3.511142 10.955513 23.585755 -0.640023 1.371533 -2.875140 -2.137069 -4.123258 -5.406432 1.055690 12.192974 1.567396 0.148516 12.614450 -21.676851 -2.275295 -0.295249 -4.719774 -2.063608 -17.319433 7.505106 10.674917 2.074016 -7.465515 -6.944536 9.207062 8.212844 -0.323467 -8.726139 -1.504060 7.674259 10.677588 11.942781 -5.158866 -3.423011 -17.802572 -1.581360 -1.562338 2.239903 2.494829 -1.104906 0.692743 7.669233 55.192274 7.804772 24.808497 6.788646 -2.591195 28.487948 10.021365 4.897374 0.297893 -4.173961 -3.136791 -0.531344 -65.022674 37.313848 -11.766903 -3.294188 0.558112 -19.140378 -3.464541 -18.211510 -0.367899
39.550632 98.573555 314.454895 -7.848843 -8.738848 3.860992 11.416678 26.873840 -0.821247 0.568254 -2.973256 -1.854648 -3.340014 -5.903519 0.401703 12.320687 0.796889 0.643549 12.560914 -22.709554 -2.070383 -0.798881 -1.443976 -2.134558 -17.173330 7.270194 9.674598 2.347685 -7.874646 -6.999060 9.431596 8.357382 -0.492036 -8.876915 -1.373576 8.045988 10.963552 11.922417 -5.524032 -3.780669 -18.456471 -1.594997 -1.724125 2.424112 2.711184 -1.394529 0.852806 7.609518 55.642697 6.838383 24.820814 6.453955 -2.772506 29.104441 10.241323 3.880434 1.234994 -4.624062 -3.305488 -0.677930 -64.576822 37.735000 -12.659578 -3.327015 0.457532 -18.235747 -3.856761 -19.167460 -0.169972
40.698193 97.860641 318.710175 -7.173938 -8.597179 4.054166 10.362771 28.402478 -0.663957 0.362714 -0.922150 -1.548470 -2.309563 -6.507345 0.076802 11.941628 -1.023641 1.536417 11.292163 -23.577801 -3.061774 -1.474123 3.485019 -2.042151 -15.463167 10.233853 7.317740 3.543483 -8.664956 -6.901856 9.033865 8.198690 -0.518663 -8.811697 -1.176355 8.430726 10.738216 11.507426 -5.714143 -4.116557 -19.100297 -1.257874 -1.851433 3.055118 2.645464 -1.019084 0.935540 7.631448 56.068461 6.166819 24.143694 6.102023 -2.737299 29.058584 10.478854 2.601056 2.471409 -5.673180 -3.488596 -0.816693 -63.864070 37.870141 -13.088573 -3.123219 0.590978 -17.737784 -4.256205 -19.833349 0.202476
41.991016 97.688385 322.834503 -4.992829 -7.632575 4.181434 6.525871 27.217086 -0.462308 1.094077 4.343834 -1.201907 -0.175398 -5.629015 0.843001 11.131328 -5.151038 2.959944 7.852668 -25.045966 -5.091211 -1.730671 7.121863 -1.570262 -14.713524 18.068749 6.815189 5.019439 -8.926198 -5.757033 7.495910 7.644535 -0.219320 -8.236534 -0.882333 8.465347 9.405849 10.859688 -5.544623 -4.277601 -19.956595 -0.799169 -1.746423 3.518259 2.609059 0.757203 0.926180 7.597395 55.881922 5.153498 22.965157 5.946395 -2.273790 28.297687 10.205071 1.947648 3.114879 -7.891099 -3.883047 -1.115309 -62.586615 37.181715 -12.790406 -2.606654 1.212363 -17.272099 -5.118075 -21.084482 0.488251
43.357903 97.874054 327.075806 -2.163612 -6.519911 4.373414 1.720152 24.564148 0.473828 2.037510 11.696772 -1.094670 2.364430 -1.500922 0.960350 10.797966 -12.299374 5.356102 3.637166 -26.278744 -6.644166 -1.993467 11.002353 -0.781945 -14.895094 23.759983 7.174534 6.027869 -8.007115 -4.307865 5.563676 7.026979 0.193763 -7.721141 -0.858932 8.428255 7.641991 10.305604 -5.351117 -4.175916 -20.599957 -0.517194 -1.477062 3.818027 2.353730 2.137493 0.823093 7.458892 56.626588 4.501323 21.482987 5.967816 -1.884629 26.543942 9.739467 1.338164 3.038519 -8.964686 -4.330580 -1.534969 -62.020977 36.271515 -12.263693 -2.420702 1.618559 -16.983700 -5.488761 -21.308858 1.088535
44.618671 98.243561 331.401398 0.109612 -5.732750 4.744985 -2.057628 20.784850 1.499848 3.131885 20.203105 -1.267946 4.209584 6.824513 -0.016000 11.508018 -20.069113 8.563159 0.332158 -26.323384 -7.329559 -2.561468 14.529941 0.119061 -13.981655 23.894294 5.887537 6.346315 -6.363179 -3.552889 3.983153 6.483291 0.533160 -7.111082 -0.931120 8.053622 5.954871 9.795947 -5.068175 -3.826214 -20.585585 -0.474240 -1.616245 4.254426 2.106175 2.440683 0.628524 7.174332 58.497168 4.508127 19.827426 6.047360 -1.802501 24.037499 9.082442 0.094854 2.492407 -7.693520 -4.632737 -1.621608 -62.972427 35.895540 -12.036596 -2.656628 1.599448 -17.179018 -5.484296 -20.078426 1.731175
45.758717 98.732628 335.648590 2.074419 -4.943573 5.111900 -5.267636 15.175229 2.503474 4.596224 30.073260 -2.088204 6.281530 18.261889 -1.672393 11.185889 -23.904244 10.302732 -2.385599 -25.707833 -7.449674 -3.289030 17.231171 1.037897 -11.773233 21.206131 3.686618 6.284327 -4.658282 -3.139897 2.388421 5.951858 0.931592 -5.908411 -1.039419 7.286988 4.002518 9.376576 -4.450945 -3.678653 -20.250756 -0.918265 -1.857473 4.924298 2.031101 2.388702 0.245559 6.721474 60.702975 4.321357 17.940267 6.136929 -1.425753 21.380558 8.421584 -2.447667 2.004261 -5.512390 -4.792542 -2.038255 -64.351122 35.402472 -11.859337 -3.114998 1.510078 -17.990643 -5.050386 -18.491354 2.275192
46.671120 99.186974 339.519348 3.783933 -4.200762 5.358927 -7.646639 8.249938 3.396912 5.818185 40.268206 -3.677811 10.212230 29.230715 -4.954461 7.283141 -16.785290 6.896089 -4.647978 -24.644330 -7.464375 -3.947137 19.170330 1.904831 -8.974243 16.574084 1.446535 5.428659 -3.788719 -3.180453 0.722052 5.522701 1.213594 -4.207110 -1.120865 6.160823 2.068047 9.398791 -3.900256 -3.513192 -20.497816 -0.957505 -2.038700 5.395363 1.845559 2.693486 -0.164290 6.678027 61.946925 4.474586 16.621972 6.142829 -0.965798 19.214462 8.207321 -4.559158 1.426259 -3.988573 -5.014184 -2.413294 -64.692461 35.070325 -12.040937 -3.268909 1.579113 -19.402112 -4.993551 -17.161159 2.530632
47.464867 99.561172 343.038544 5.556510 -3.499630 5.572934 -9.435172 0.757116 3.914207 6.674410 49.431699 -5.090732 13.876195 37.418530 -9.479090 4.123384 -6.606901 1.629686 -6.922658 -22.965403 -7.666972 -4.294380 19.709896 2.721446 -6.729699 12.822255 -0.129520 4.377345 -2.994481 -3.201469 -1.177480 5.213976 1.258180 -2.144872 -1.097723 4.757016 0.076765 9.667132 -3.341442 -3.657112 -21.007120 -1.037688 -1.788705 5.351187 1.734767 3.184496 -0.529031 6.667485 62.610734 4.851881 15.966829 6.039228 -0.432915 17.613788 8.271709 -6.293620 0.955228 -3.391351 -5.270399 -2.758396 -63.782332 34.666426 -12.725124 -3.311589 1.794968 -20.876883 -5.005673 -16.376028 2.730014
48.209805 100.037384 346.424805 7.311919 -3.008684 6.256016 -11.225049 -6.069059 3.624844 8.651518 57.143701 -6.335528 12.791145 36.058128 -8.809630 3.724520 -5.912102 1.324399 -9.346791 -20.414063 -8.630308 -4.392924 18.991822 3.489500 -4.946656 10.208939 -0.973276 3.170613 -2.093571 -3.044000 -3.004411 5.049329 0.929210 -0.127513 -0.860363 3.131260 -1.800340 9.667396 -2.835529 -3.970431 -21.062186 -1.315846 -1.402577 4.819912 1.945060 3.743692 -0.667853 6.386685 63.083690 5.378829 15.562653 5.831042 0.040742 16.259083 8.088770 -7.391008 0.726170 -3.372461 -5.212676 -3.137635 -61.909553 34.298656 -14.188572 -3.466959 1.919040 -21.564878 -5.251318 -15.947723 3.017574
48.867447 100.529289 349.757751 8.805856 -2.964279 7.178441 -12.785203 -11.863865 2.771076 10.273936 61.584348 -7.198785 11.540407 33.096393 -7.327403 3.487024 -6.556842 1.868250 -11.384955 -16.768102 -9.697791 -4.251694 17.077457 4.109424 -3.268681 8.100815 -1.541441 1.854272 -1.315371 -2.907931 -4.545303 5.108951 0.394571 1.676872 -0.342811 1.542856 -3.295091 9.393442 -2.452174 -4.410896 -20.638004 -1.554483 -1.040808 4.448662 2.240558 3.878449 -0.575894 5.907980 63.694599 6.003047 15.054258 5.533949 0.265727 15.358721 7.844449 -7.761971 0.402751 -3.209516 -4.991914 -3.465496 -60.150727 33.971926 -15.995394 -3.868686 1.832868 -21.496925 -5.489690 -15.241843 3.279186
