HIERARCHY
ROOT Hips
{
	OFFSET -0.0000 -0.0000 0.0000
	CHANNELS 6 Xposition Yposition Zposition Zrotation Xrotation Yrotation
	JOINT LeftUpperLeg
	{
		OFFSET -5.2299 2.7607 -9.3936
		CHANNELS 3 Zrotation Xrotation Yrotation
		JOINT LeftLowerLeg
		{
			OFFSET -5.8867 0.6557 -41.6441
			CHANNELS 3 Zrotation Xrotation Yrotation
			JOINT LeftFoot
			{
				OFFSET 4.1738 2.9512 -43.7584
				CHANNELS 3 Zrotation Xrotation Yrotation
				JOINT LeftToe
				{
					OFFSET -4.9294 -12.6259 -6.5279
					CHANNELS 3 Zrotation Xrotation Yrotation
					End Site
					{
						OFFSET 0.0000 0.0000 5.0000
					}
				}
			}
		}
	}
	JOINT RightUpperLeg
	{
		OFFSET 5.7193 2.2218 -10.6548
		CHANNELS 3 Zrotation Xrotation Yrotation
		JOINT RightLowerLeg
		{
			OFFSET 4.8074 1.4061 -39.7560
			CHANNELS 3 Zrotation Xrotation Yrotation
			JOINT RightFoot
			{
				OFFSET -1.4489 1.8030 -44.6852
				CHANNELS 3 Zrotation Xrotation Yrotation
				JOINT RightToe
				{
					OFFSET 4.0575 -12.7076 -6.5287
					CHANNELS 3 Zrotation Xrotation Yrotation
					End Site
					{
						OFFSET 0.0000 0.0000 5.0000
					}
				}
			}
		}
	}
	JOINT Spine
	{
		OFFSET -0.0000 -0.0000 11.2930
		CHANNELS 3 Zrotation Xrotation Yrotation
		JOINT Spine1
		{
			OFFSET -0.0000 -0.0000 14.5636
			CHANNELS 3 Zrotation Xrotation Yrotation
			JOINT Spine2
			{
				OFFSET -0.0000 -0.0000 5.6082
				CHANNELS 3 Zrotation Xrotation Yrotation
				JOINT Neck
				{
					OFFSET -0.0000 -0.0000 17.1365
					CHANNELS 3 Zrotation Xrotation Yrotation
					JOINT Head
					{
						OFFSET -2.4654 -2.4463 17.5391
						CHANNELS 3 Zrotation Xrotation Yrotation
						End Site
						{
							OFFSET 0.0000 0.0000 5.0000
						}
					}
				}
				JOINT LeftShoulder
				{
					OFFSET -4.7725 0.8375 8.7643
					CHANNELS 3 Zrotation Xrotation Yrotation
					JOINT LeftUpperArm
					{
						OFFSET -12.6285 1.3885 5.7680
						CHANNELS 3 Zrotation Xrotation Yrotation
						JOINT LeftLowerArm
						{
							OFFSET -27.2907 3.9094 -6.9853
							CHANNELS 3 Zrotation Xrotation Yrotation
							JOINT LeftHand
							{
								OFFSET -27.6174 0.2478 2.1254
								CHANNELS 3 Zrotation Xrotation Yrotation
								End Site
								{
									OFFSET 0.0000 0.0000 5.0000
								}
							}
						}
					}
				}
				JOINT RightShoulder
				{
					OFFSET 4.6636 1.4864 8.6612
					CHANNELS 3 Zrotation Xrotation Yrotation
					JOINT RightUpperArm
					{
						OFFSET 10.9342 0.9118 5.3674
						CHANNELS 3 Zrotation Xrotation Yrotation
						JOINT RightLowerArm
						{
							OFFSET 29.2029 2.4565 -3.5440
							CHANNELS 3 Zrotation Xrotation Yrotation
							JOINT RightHand
							{
								OFFSET 27.1879 1.6445 -0.4835
								CHANNELS 3 Zrotation Xrotation Yrotation
								End Site
								{
									OFFSET 0.0000 0.0000 5.0000
								}
							}
						}
					}
				}
			}
		}
	}
}
MOTION
Frames: 90
Frame Time: 0.033333
3.091975 2.879253 99.326302 4.071396 -3.985731 7.927388 9.259664 15.160922 -12.595376 -2.031018 1.702762 -3.238816 2.344559 -6.573850 7.126277 0.476612 -0.421558 -10.967995 -2.614320 -29.046428 -10.882158 -2.001287 3.224513 1.604744 7.631084 12.113334 17.130109 -7.005868 -7.518874 -2.381259 6.420470 16.522001 -21.265821 7.418370 -3.022476 13.830678 -3.858644 8.049619 -4.591853 -2.164146 -14.677080 2.444607 0.547708 1.147634 1.138392 7.891125 1.601208 2.029416 14.545014 -13.367118 -60.511552 22.680370 -5.159840 -5.831572 3.991639 -1.215617 -6.034550 -1.603145 -1.457192 2.115227 -33.899058 0.100025 68.311275 -26.485279 -2.078966 2.886640 -0.906505 -17.428324 6.112259
3.888584 -0.649342 98.521301 3.210400 -3.869295 7.916343 9.498601 17.857901 -12.383888 -1.763201 1.109287 -3.020430 2.885656 -7.702033 6.960151 0.707876 -0.725358 -11.255503 -3.061694 -29.975283 -10.690960 -2.030353 5.526871 2.035418 7.358645 10.686699 15.987499 -6.929654 -7.449003 -2.486167 6.118257 16.975668 -21.119225 7.585127 -3.176586 14.238212 -3.987233 7.895961 -5.067060 -1.945322 -15.312369 3.074583 0.993466 0.964283 1.053028 7.653207 1.866542 1.830867 15.525526 -13.760043 -60.227195 21.869876 -4.672133 -5.489887 4.511257 -0.125089 -6.658918 -1.789412 -1.448772 2.963631 -34.698111 0.204524 68.172186 -25.034245 -1.877144 2.776303 -0.872341 -18.130795 5.874241
4.856150 -4.456409 97.852081 2.207254 -3.319274 6.825804 8.880969 20.234072 -10.614195 -1.462980 1.151318 -2.538620 3.957323 -8.337704 5.681944 1.011500 -2.048164 -10.744552 -3.935767 -30.825819 -9.579756 -2.072285 9.054632 2.525503 6.225778 13.228061 13.662914 -6.851488 -7.618609 -3.646931 5.466997 16.827722 -19.084600 7.398853 -3.247888 13.678009 -3.904825 7.794873 -5.201645 -1.416565 -16.537801 3.689372 1.479263 0.947671 0.557737 7.644817 1.949408 0.382195 16.082648 -13.655896 -59.283716 21.146588 -4.064081 -5.138973 5.081918 0.558806 -7.270996 -1.889486 -1.641523 4.820137 -35.152904 0.802077 67.214761 -22.995399 -1.162036 2.502775 0.243815 -17.858958 6.007372
5.940033 -8.632761 97.632637 1.153019 -2.201120 4.684345 7.590497 22.423308 -7.574936 -0.977767 1.083410 -1.465083 4.734570 -6.384207 2.640900 1.501882 -4.950225 -9.690098 -4.948772 -31.912470 -7.438781 -1.875114 11.615563 2.630811 5.800115 19.393443 11.206035 -6.217422 -7.649528 -4.963765 4.651893 15.840522 -15.348735 7.068623 -3.356870 12.268628 -3.935455 7.822554 -4.791468 -0.789888 -17.960357 3.862702 1.701117 0.921633 -0.064079 7.920938 1.600847 -1.672358 16.099149 -12.656011 -58.346644 20.662852 -3.549136 -4.928015 5.315732 1.211658 -7.329378 -2.069167 -2.149446 6.828843 -35.121985 1.842178 66.133969 -20.648597 -0.324020 2.328383 2.007157 -17.635743 6.727935
6.944296 -12.886064 97.652855 0.448477 -1.130511 2.666553 6.582765 24.120043 -5.029395 -0.383617 1.612037 -0.122246 4.669392 -1.755621 -0.921991 2.335939 -9.685132 -8.695934 -5.336936 -32.663324 -5.240895 -1.556626 14.118912 2.715583 5.811399 23.282634 9.866904 -5.407998 -7.133524 -5.842643 4.052784 14.688796 -11.765718 6.701084 -3.852182 10.873177 -3.958221 8.049345 -4.113081 -0.543473 -18.998834 3.562820 1.830661 0.787326 -0.609643 7.785276 1.282237 -2.491602 15.882545 -11.352101 -59.037882 20.241204 -3.390700 -5.048628 5.250505 1.716771 -7.371272 -2.165996 -2.680581 7.185683 -35.986163 2.621459 65.985981 -18.761274 -0.029500 2.419655 3.637669 -17.054467 7.535486
7.843472 -17.163961 98.010345 0.303878 -0.308087 1.038720 6.032374 23.056183 -2.820642 0.059031 6.259875 0.293284 3.446048 5.148241 -3.612867 3.621794 -16.691385 -8.114206 -4.996025 -32.795571 -3.036617 -1.154077 16.685495 2.926219 5.715363 23.655205 8.886737 -4.632397 -5.927629 -6.336101 3.716289 13.681411 -8.687108 6.159377 -4.753929 9.355625 -4.042471 8.526129 -3.184215 -0.514944 -19.799562 3.021947 1.824837 1.006596 -0.783918 7.431697 0.779557 -2.354455 15.470039 -9.731751 -60.963329 19.689285 -3.354685 -5.301586 4.518833 1.767701 -7.616541 -2.190314 -3.229872 6.196634 -37.425042 2.996483 66.596580 -17.853547 0.167344 2.801124 4.704940 -16.080163 8.101696
8.671359 -21.351545 98.519501 0.629795 0.331451 -0.367810 5.310679 19.437201 -0.564786 0.594924 14.259201 -0.081582 2.352596 15.094420 -5.693372 5.100748 -23.960505 -7.276902 -4.273059 -32.299091 -0.828548 -0.712111 19.070849 3.276439 5.011265 20.932588 8.026349 -4.173402 -4.484891 -6.587087 3.516537 12.716869 -5.668216 4.920115 -5.640933 7.382292 -3.664133 8.993857 -2.142909 -1.097554 -20.284364 2.418298 1.855186 1.324029 -0.747749 6.917040 0.173141 -2.015337 14.868469 -7.958112 -63.183174 19.080513 -3.212391 -5.426302 3.525118 0.616607 -7.504520 -2.415319 -3.615235 4.701230 -38.827089 2.909073 67.106030 -17.893012 0.137287 3.259790 5.491416 -15.076238 8.266357
9.321815 -25.340084 99.108994 1.163009 0.822613 -1.541206 4.972505 13.318226 1.513705 0.874447 25.129724 -0.822960 1.363227 26.051566 -8.352380 5.533374 -22.580643 -6.137495 -3.361861 -31.072580 1.245354 -0.279379 20.801134 3.578764 4.109170 16.134316 6.737476 -4.042064 -3.916829 -6.284765 3.451106 11.985671 -2.633692 3.205206 -6.585949 4.784855 -3.216051 9.736629 -1.013378 -1.515684 -20.832232 1.904925 1.407914 1.279765 -0.485356 6.710132 -0.442949 -2.061760 14.335750 -6.458431 -64.643755 18.343269 -3.001317 -5.478674 2.287388 -0.332894 -7.454836 -2.634912 -3.933216 3.504835 -40.095609 2.585471 66.981091 -18.626190 0.251446 3.449226 5.568916 -14.264707 8.187193
9.826236 -28.973848 99.608688 1.866919 1.267236 -2.702295 5.285762 5.564477 3.323786 0.831030 37.033270 -1.122863 1.506083 35.201686 -12.538393 2.443454 -9.816971 -4.601573 -2.387765 -29.374501 3.273944 0.288808 21.351625 3.614256 2.742220 12.317041 5.866790 -3.940581 -3.598026 -5.703422 2.979434 11.435831 0.639579 1.679214 -7.289892 1.877657 -2.902466 10.650836 -0.096589 -1.817303 -21.446494 1.822735 1.173470 0.872119 -0.491282 6.629444 -1.037870 -1.972481 13.946177 -5.524208 -65.620783 17.851375 -2.680028 -5.618125 1.431088 -1.568330 -7.560019 -2.996092 -4.250847 2.783249 -41.327949 2.135450 66.049865 -19.897452 0.431256 3.477926 5.348248 -13.971025 7.813552
10.287968 -32.339611 100.107399 3.009091 1.445379 -3.902062 5.252844 -2.387830 5.156503 2.403371 48.005736 -2.822041 0.802842 34.672714 -12.885634 1.272174 -5.907758 -4.196593 -2.223378 -27.137035 5.197396 0.929865 21.013871 3.432210 1.611783 9.477853 5.170454 -3.721457 -3.186997 -4.815161 1.816893 11.135116 3.862235 0.250406 -7.454404 -1.022121 -2.478726 11.137742 0.642588 -2.222095 -21.555580 1.925963 1.455071 -0.134163 -0.678100 6.413626 -1.331096 -1.863321 13.967419 -5.071518 -66.167447 17.705971 -2.305290 -5.812089 1.295934 -2.865822 -7.607972 -3.224205 -4.431010 2.546908 -42.803079 1.530085 64.386222 -21.146755 0.625157 3.383007 4.945673 -14.154686 7.001666
10.812817 -35.611675 100.718033 4.430390 1.131932 -4.912195 4.546197 -9.845869 6.975627 4.856839 55.346675 -5.505756 -1.278954 31.080713 -10.592973 1.692564 -6.486821 -3.955729 -2.949884 -23.836206 6.815490 1.643851 19.445996 3.098755 0.736771 7.501135 4.365270 -3.542877 -2.828030 -3.783749 0.200134 11.144103 6.626012 -0.900275 -7.031463 -3.728184 -2.131148 11.121643 1.283312 -2.556069 -21.203041 2.054567 1.993777 -0.601181 -0.788742 6.244406 -1.423839 -1.801286 14.337713 -4.675230 -66.316111 18.049932 -2.084585 -5.952427 1.728152 -3.614686 -7.351066 -3.299469 -4.366156 2.529983 -44.349214 0.453138 62.451615 -21.781830 0.691801 3.190865 4.592245 -13.779491 6.068193
11.425058 -38.991718 101.314056 5.984131 0.411255 -5.732999 3.063808 -16.399412 8.649321 6.575541 58.238005 -7.285264 -3.055981 28.695967 -8.411746 2.114057 -7.137249 -3.597020 -4.231615 -19.677236 8.243492 2.367147 17.091630 2.706989 -0.153099 5.777782 3.385582 -3.393889 -2.570659 -2.576763 -1.662758 11.382634 8.956945 -1.831481 -6.207272 -6.106177 -1.753046 10.669245 1.758746 -2.993449 -20.495716 2.082991 2.702569 -0.631879 -0.790674 6.053481 -1.347305 -1.690806 14.731031 -4.119195 -66.318072 18.984238 -2.040673 -6.033336 2.275285 -3.754603 -6.945190 -3.491207 -4.263563 2.213912 -45.539622 -1.023280 60.931213 -22.190099 0.581424 2.995309 4.129008 -12.770121 5.334096
12.066553 -42.481529 101.773621 7.609995 -0.529276 -6.495517 0.999708 -21.929844 10.177750 6.878710 57.445736 -7.358745 -3.841222 26.927008 -7.225425 2.511776 -7.807873 -3.065495 -5.830927 -15.111095 9.661572 2.995090 14.381612 2.320639 -1.088045 4.154363 2.201568 -3.225783 -2.417888 -1.191925 -3.578798 11.768128 11.134219 -2.694550 -5.141030 -8.278864 -1.287800 9.883092 2.103889 -3.472237 -19.660575 2.040466 3.461286 -0.586003 -0.731308 5.812039 -1.109067 -1.643512 14.993402 -3.427329 -66.122174 20.354711 -2.112486 -6.120170 2.683393 -3.529767 -6.534429 -3.795733 -4.177955 1.671500 -46.196005 -2.603248 59.850918 -22.951037 0.378345 2.817205 3.442256 -11.773293 4.682381
12.668450 -45.916260 102.071693 9.236957 -1.575865 -7.170097 -1.157858 -26.177591 11.390282 6.030410 53.601219 -6.095407 -3.847156 25.061404 -7.053815 2.940039 -8.482564 -2.315274 -7.569901 -10.499549 11.007422 3.480249 11.596472 1.990872 -2.073859 2.780178 0.943675 -3.043636 -2.343939 0.296119 -5.323922 12.320215 13.155736 -3.491709 -3.996124 -10.221306 -0.774288 8.913642 2.321536 -4.020030 -18.829924 1.887099 4.027074 -0.663007 -0.641394 5.533841 -0.793099 -1.790884 15.094591 -2.664175 -65.690263 21.758570 -2.239802 -6.219903 2.949595 -3.037687 -6.188239 -4.121104 -4.057341 1.157563 -46.710770 -4.027405 59.000641 -24.155477 0.102835 2.559803 2.547782 -11.357593 4.025576
13.176544 -49.204082 102.194855 10.823716 -2.571376 -7.670305 -3.058975 -28.985976 12.069976 4.526824 46.998415 -4.082247 -3.365842 23.573472 -7.773421 3.398110 -9.146686 -1.244226 -9.211573 -6.222466 12.085831 3.814328 9.142109 1.803759 -3.163061 1.520485 -0.257311 -2.858647 -2.294455 1.697556 -6.757488 12.979324 14.904014 -4.146044 -3.058544 -11.917840 -0.298853 8.061577 2.489980 -4.620020 -18.063859 1.576001 4.368844 -0.877894 -0.521688 5.202620 -0.526740 -2.229203 15.123361 -1.869112 -65.119235 22.824874 -2.348030 -6.276888 3.314221 -2.427527 -5.925358 -4.407604 -3.970143 0.749427 -47.393032 -5.185915 58.281489 -25.689258 -0.149030 2.180861 1.608528 -11.549840 3.540898
13.586757 -52.455448 102.155411 12.388528 -3.435433 -8.038395 -4.719184 -30.240217 12.280548 2.883102 37.545972 -1.883470 -2.526626 23.692399 -9.404152 3.990828 -9.797610 0.355071 -10.809246 -2.362483 12.878069 3.987219 7.162053 1.794379 -4.292420 0.225756 -1.496054 -2.694503 -2.224112 2.982796 -7.898753 13.630955 16.466262 -4.663910 -2.409647 -13.501892 0.111652 7.440962 2.720629 -5.165782 -17.349535 1.104855 4.401298 -1.208225 -0.361443 4.804345 -0.338230 -2.857663 15.128281 -1.145328 -64.590263 23.314208 -2.401372 -6.310249 3.695887 -1.942886 -5.751334 -4.596529 -3.921887 0.325722 -48.407867 -6.078703 57.820830 -27.418406 -0.383602 1.648348 0.590855 -11.924744 3.049790
13.935081 -55.880112 101.953629 13.996339 -4.208216 -8.442940 -6.062481 -29.779000 12.333769 1.617429 25.695624 -0.042677 -1.512164 24.806401 -11.983487 4.827108 -10.241994 2.315967 -12.585830 1.284994 13.651924 3.989022 5.603706 1.917423 -5.290313 -1.206540 -2.902281 -2.466696 -2.038204 4.297238 -8.871862 14.159452 18.114581 -5.113474 -1.989547 -15.148722 0.467284 7.083564 3.096116 -5.681746 -16.658544 0.461901 4.147160 -1.598433 -0.150429 4.376629 -0.200479 -3.461797 15.056837 -0.546289 -64.335089 23.233762 -2.455288 -6.365455 3.834111 -1.463208 -5.796386 -4.660152 -3.909931 -0.291484 -49.631849 -6.795911 57.778814 -29.223661 -0.693392 1.090327 -0.373697 -12.081927 2.412671
14.216558 -59.540688 101.553391 15.698632 -5.015842 -9.083722 -6.791583 -27.656171 12.748026 0.847487 12.278444 1.419170 -0.703057 25.369708 -15.680101 5.948868 -10.345578 4.045276 -14.427771 4.670615 14.493838 3.827952 4.509354 2.194192 -6.175570 -2.799949 -4.357086 -2.117293 -1.671921 5.704554 -9.671795 14.518504 20.106753 -5.560942 -1.778814 -16.977763 0.751541 7.062110 3.686043 -6.396996 -15.934066 -0.340012 3.579207 -1.997414 0.084685 3.922299 -0.220542 -3.844232 14.743427 0.092814 -64.614975 22.702599 -2.541172 -6.513832 3.838945 -0.717692 -6.176678 -4.685185 -3.950718 -1.215959 -51.104955 -7.314435 58.157514 -31.090146 -1.155429 0.673289 -1.217951 -11.771425 1.847881
14.441895 -63.514664 100.939598 17.378225 -5.743487 -9.854426 -7.013550 -24.717166 13.509772 0.592606 -1.010918 2.690844 -0.989759 24.283711 -20.262961 7.313915 -10.399911 4.835726 -16.158787 8.005454 15.371987 3.503234 3.796422 2.545975 -7.060086 -4.664152 -5.796817 -1.748852 -1.407056 7.004413 -10.154700 14.580035 22.140788 -5.885002 -1.672035 -18.777902 0.915812 7.267602 4.422189 -7.278584 -15.219526 -1.143642 2.958350 -2.193936 0.319409 3.331055 -0.296276 -4.169897 14.236866 0.791230 -65.186320 21.889510 -2.619689 -6.793127 4.060834 0.235477 -6.867613 -4.757720 -3.961411 -2.217410 -52.531447 -7.636324 58.812702 -32.922176 -1.462893 0.516545 -2.004114 -11.383337 1.711339
14.631258 -67.791161 100.177231 18.735672 -6.227702 -10.501550 -6.834995 -23.056290 14.269708 0.720023 -9.859581 3.476997 -2.684374 21.616315 -23.819437 8.274663 -11.085170 3.982138 -17.731144 11.404331 16.137549 3.173446 2.960977 2.672046 -7.735480 -6.449117 -6.911592 -1.484948 -1.509884 7.858786 -10.199477 14.434413 23.686470 -5.976617 -1.511448 -20.123515 0.942254 7.412526 4.982407 -7.907440 -14.794502 -1.767615 2.693995 -1.592020 0.659175 2.726004 -0.356430 -4.911633 14.177888 1.480182 -65.337843 20.617146 -2.662433 -7.047423 4.224799 0.824911 -7.811475 -4.874216 -3.994181 -2.648923 -53.256839 -7.539069 59.535387 -34.502158 -1.253302 0.664688 -2.567484 -11.055867 2.303872
14.820444 -72.130112 99.432091 19.665370 -6.603951 -11.220902 -7.273057 -23.711131 14.929981 0.784935 -11.528643 3.494200 -4.357550 19.199790 -25.556464 8.430954 -11.599538 2.637686 -19.522660 14.595053 17.330975 2.972160 2.148416 2.380892 -7.544391 -7.420500 -7.387970 -1.535242 -1.759427 8.379945 -10.218588 14.435110 25.141833 -6.056778 -1.589441 -21.433824 0.952500 7.693816 5.500769 -8.033476 -14.880991 -2.027814 2.225568 -0.963026 0.830098 2.051673 -0.214833 -5.669483 14.575219 1.703187 -65.166213 18.786183 -2.360980 -7.220558 3.493470 1.019509 -9.044111 -5.106649 -4.047659 -2.738086 -53.215108 -7.222137 60.434464 -35.232566 -0.895785 0.944963 -2.798391 -10.542179 2.937405
14.976129 -76.475952 98.725830 20.298150 -6.890497 -11.628896 -8.351886 -25.057947 14.990796 0.813683 -7.970243 2.863875 -4.359545 18.534553 -24.886802 8.655613 -12.284529 2.625863 -20.760650 17.241508 18.198844 2.856177 2.291505 1.984820 -7.125269 -8.019084 -7.482001 -1.855708 -2.998547 8.627871 -10.100804 14.615077 25.691935 -6.249984 -1.542184 -21.778565 0.968276 7.538669 5.614502 -8.167588 -14.990722 -2.149708 2.292196 -0.648731 0.842454 1.613345 -0.046297 -6.226121 14.735641 1.705829 -65.094720 16.847268 -1.793936 -7.410871 1.957761 1.158742 -9.778934 -5.254649 -3.501885 -2.431242 -53.163622 -6.517253 61.018977 -35.003114 -0.760153 0.847242 -2.357957 -10.629728 3.580736
14.929737 -80.825958 98.218605 20.693941 -6.559318 -11.007278 -8.301648 -25.998605 13.926735 0.882630 -2.433083 1.841073 -2.839005 18.661221 -21.730694 8.993738 -13.005734 3.613140 -20.419215 18.743144 16.910637 2.812672 4.645546 2.134123 -7.140567 -8.160045 -6.881919 -2.432028 -5.236059 8.290496 -9.508183 14.260501 24.441689 -6.319065 -1.176210 -21.178367 0.999408 6.864613 5.460314 -8.148278 -15.243569 -2.210442 2.715548 -0.029227 1.017331 1.340889 0.005596 -7.258661 14.851342 2.037842 -64.692565 14.920856 -1.059424 -7.301831 0.117294 0.575022 -10.104460 -5.463065 -2.730105 -1.368876 -52.461452 -5.221305 61.647563 -33.860693 -0.487497 0.571709 -1.988435 -11.262450 3.766397
14.720976 -85.279564 98.075066 20.865845 -5.329581 -8.885960 -7.016291 -26.920623 11.080919 0.675368 2.251470 0.968137 -0.879405 22.219523 -17.461481 8.276177 -12.473274 4.963806 -18.070735 18.785723 12.663884 2.609667 9.238240 2.770216 -7.562424 -6.808796 -5.187613 -3.202040 -8.857297 7.329631 -8.652354 13.033580 20.819725 -6.026164 -0.684357 -19.715654 0.953160 6.086400 5.152545 -7.605782 -16.065329 -1.950277 3.817883 1.192892 1.319412 1.341033 -0.267869 -8.798087 14.596403 2.696438 -63.718711 13.161264 -0.526220 -6.859632 -1.521810 -0.508982 -10.410027 -5.573325 -2.290826 0.681995 -51.121608 -3.100443 62.223299 -32.024978 -0.068970 0.293274 -1.500074 -12.320724 3.640894
14.526270 -89.895218 98.149475 20.606785 -3.880696 -6.328274 -5.579980 -27.806492 7.709756 0.179490 5.773760 0.669589 -0.014374 27.992296 -15.776507 6.425701 -10.240153 5.596483 -15.101453 15.711928 7.189441 2.197497 18.042456 4.332242 -8.012977 -2.754334 -2.887569 -4.376199 -14.540716 5.956810 -7.844474 11.456691 16.587495 -5.698337 -0.430970 -18.242451 0.863740 5.811374 4.887235 -6.748710 -17.004005 -1.420985 4.829685 2.273430 1.608390 1.462740 -0.419921 -9.545676 14.119922 2.885263 -62.954979 12.060348 -0.318333 -6.453606 -2.458424 -1.217165 -10.579232 -5.420601 -2.283493 2.047241 -49.111011 -1.530668 63.388221 -29.844126 0.377773 0.407921 -1.304136 -13.283460 3.078674
14.391833 -94.590485 98.376236 19.917592 -2.733897 -4.157003 -4.559359 -28.707129 4.951100 0.022861 10.418757 0.068993 -0.172540 28.131252 -14.055545 5.097525 -7.897014 5.019998 -13.152780 11.433800 2.944155 1.886196 27.741546 5.661673 -7.626493 5.510758 0.122418 -5.948456 -21.993294 4.294556 -7.246132 10.154394 12.898077 -5.230611 -0.626108 -17.124420 0.650230 5.859438 4.766896 -5.752654 -17.402505 -0.810258 5.411838 2.735321 1.747865 1.748077 -0.497466 -8.861788 13.532052 2.578389 -62.932250 11.637152 -0.442458 -6.289477 -3.019196 -1.223139 -10.134283 -5.017548 -2.217902 1.810785 -47.124109 -1.299943 65.257467 -27.032846 0.701193 1.115621 -0.971098 -13.586422 2.489047
14.488096 -99.274368 98.679962 19.108962 -1.779061 -2.177325 -4.283333 -28.947613 2.357060 0.131687 14.445951 -0.943154 -0.696432 24.941875 -11.413936 4.292436 -5.864353 4.064267 -12.349204 5.646983 -0.556460 1.659412 38.114818 6.775508 -7.092144 17.402242 4.417857 -7.156778 -26.076373 2.281467 -6.913715 9.035625 9.035486 -4.634483 -1.198388 -15.355717 0.336488 6.300730 4.366115 -4.758675 -17.650111 -0.108457 5.703101 2.697211 1.681561 2.402233 -0.514496 -7.593406 13.016065 1.974730 -63.124834 11.975987 -0.779713 -6.157063 -2.844752 -1.874979 -9.505378 -4.516820 -2.231747 1.079959 -45.737512 -1.341766 67.093914 -24.151483 0.603320 1.853175 -0.426428 -12.936876 2.691041
14.657452 -103.460121 99.148529 18.257565 -1.234001 -0.336148 -3.990932 -27.913200 0.126926 -0.009044 17.082546 -1.970992 -1.262683 19.881697 -8.673689 3.768853 -5.383955 2.149912 -12.656279 -0.736912 -3.242951 1.439697 48.220469 7.391785 -6.354963 27.914894 9.369240 -4.366108 -18.152351 1.272196 -6.307193 8.539895 4.936452 -3.953828 -1.939978 -12.914896 0.083259 6.893586 3.754003 -3.905120 -17.722097 0.488812 5.805968 2.678358 1.725550 3.131320 -0.537932 -6.764036 12.555825 1.187103 -62.681269 12.498019 -0.698807 -6.088076 -2.663136 -2.801206 -9.121604 -4.320035 -2.359251 0.930799 -45.245224 -1.055741 68.188330 -21.320198 0.114095 2.338289 0.493616 -12.588406 3.164590
14.918205 -107.326782 99.721962 17.380415 -1.072234 1.248802 -3.830209 -25.703146 -1.934584 -0.258636 17.793959 -2.540732 -1.405592 16.224261 -6.531141 3.376087 -5.058084 0.201672 -13.065674 -6.920371 -5.207981 0.628800 56.880816 8.141217 -4.684442 34.359063 11.437509 -0.610842 -8.297958 1.298875 -5.299218 8.440061 1.056535 -3.088878 -2.427622 -10.152528 -0.087026 7.345440 2.966014 -3.591103 -17.663250 0.922368 5.868307 2.529259 1.746314 3.589117 -0.236405 -6.684863 12.648703 0.148596 -61.393645 13.135797 -0.583861 -5.954666 -2.323326 -3.191303 -8.760635 -4.254003 -2.259369 1.679664 -44.842257 -0.740851 68.246023 -19.013206 -0.173576 2.613216 1.433498 -12.567705 3.509730
15.232675 -111.214401 100.490082 16.397977 -1.228124 2.483744 -3.563820 -22.408858 -3.746751 -0.622820 17.055421 -2.633025 -1.257367 13.461345 -5.179174 2.963845 -4.292270 -1.045566 -12.499689 -12.867752 -6.904841 -2.051823 64.069716 10.676731 -1.106841 30.562437 8.585037 -0.868806 -6.748010 1.388614 -4.049416 8.559862 -2.204564 -1.815130 -2.641359 -7.345467 -0.514813 7.417716 2.244197 -3.761512 -17.187669 0.883012 6.221631 2.513150 1.714216 3.767008 0.184714 -6.905387 13.166035 -1.185046 -59.909568 13.618848 -0.565937 -5.835305 -1.762671 -3.047518 -8.138257 -3.940889 -1.902605 2.240786 -44.169206 -0.687433 68.068119 -17.403296 0.153128 2.965960 2.354262 -12.820040 3.827739
15.574982 -115.127792 101.310333 15.349650 -1.840322 3.434125 -2.876850 -18.015881 -5.211821 -1.013539 15.072918 -2.505602 -0.928023 11.309406 -4.028209 2.520378 -3.372150 -2.328563 -11.350230 -17.827065 -8.231127 -5.036315 67.731784 13.348781 1.273729 25.853426 6.125925 -1.628501 -6.409303 1.395385 -2.619243 9.099667 -5.129645 -0.382812 -2.714708 -4.054737 -1.117128 7.123352 1.277542 -4.036010 -16.321812 0.517310 6.010029 2.935667 1.683481 3.866061 0.796529 -6.737680 13.915089 -2.748107 -58.972419 14.087856 -0.771699 -5.717561 -1.198870 -2.489750 -7.658919 -3.558269 -1.504124 2.158694 -43.581258 -0.505998 68.264784 -16.690979 0.405154 3.214665 2.860879 -13.120160 4.189914
15.932878 -118.990692 102.032173 14.311491 -2.735450 4.126637 -1.676620 -13.030495 -6.360298 -1.384592 12.283646 -2.287150 -0.614361 9.626824 -2.834758 2.129367 -2.441983 -3.676977 -9.969605 -21.723924 -9.095815 -6.767687 68.201339 14.593121 3.196255 21.856945 4.347457 -2.242994 -6.140603 1.335640 -1.243468 9.950382 -7.825057 1.106505 -2.602803 -0.367391 -1.772729 6.545698 0.081367 -4.200345 -15.286442 0.129944 5.258527 3.391878 1.582656 3.998268 1.563302 -6.036543 14.709934 -4.423514 -58.651725 14.961172 -1.180518 -5.643121 -0.721635 -1.898016 -7.148069 -3.187744 -1.042646 1.813828 -42.850222 0.039896 68.616919 -16.981719 0.432760 3.232120 2.917866 -13.256356 4.623302
16.304033 -122.827805 102.528938 13.249442 -3.716786 4.648254 -0.008376 -8.069686 -7.342241 -1.684435 9.462747 -2.112388 -0.514074 8.060709 -1.504523 1.837473 -1.647745 -4.948183 -8.740637 -24.665022 -9.633887 -6.759379 65.949778 13.916925 4.787541 18.543535 3.228321 -2.785582 -6.103085 1.118273 0.020065 11.004129 -10.274559 2.511381 -2.394258 3.286869 -2.437021 5.989810 -1.195045 -4.105158 -14.488675 -0.002020 4.408085 3.654292 1.409336 4.365867 2.241621 -4.979454 15.508564 -5.951400 -58.611367 16.359598 -1.746702 -5.610470 -0.281258 -1.430982 -6.622623 -2.760111 -0.712769 1.652682 -41.739812 1.016641 68.838300 -18.217625 0.345232 3.123402 2.620306 -13.549203 4.972873
16.699085 -126.547264 102.737511 12.227241 -4.664235 5.123159 1.812493 -3.518207 -8.312645 -1.869786 7.059874 -2.027600 -0.595403 6.348362 -0.087302 1.608875 -0.938817 -6.078301 -7.986210 -26.697213 -10.052425 -5.745944 61.161809 12.000610 5.954722 16.228631 2.853588 -3.201445 -6.303139 0.549511 1.093571 12.164561 -12.439242 3.714758 -2.203891 6.520444 -2.985941 5.659486 -2.402935 -3.878599 -14.054129 0.064420 3.667983 3.617641 1.256765 4.916223 2.682412 -3.923344 16.259282 -7.250008 -58.439797 18.077637 -2.398560 -5.568252 0.186935 -0.817798 -6.245143 -2.288935 -0.577769 1.718667 -40.455531 2.149637 68.840956 -20.011825 0.204780 3.014967 2.239989 -14.296960 5.154467
17.159370 -130.274231 102.686897 11.226688 -5.496985 5.591832 3.733211 0.628429 -9.297925 -1.965478 5.099267 -2.054031 -0.781826 4.393234 1.415829 1.384776 -0.278927 -7.123579 -7.683534 -27.726685 -10.468887 -4.552614 53.802099 9.714635 6.789789 15.234962 2.995586 -3.520470 -6.656578 -0.454156 2.022153 13.274538 -14.271522 4.686006 -2.083037 9.125165 -3.393334 5.577796 -3.409030 -3.577219 -13.883037 0.183651 2.929648 3.518197 1.174299 5.558140 2.839226 -3.117955 16.946656 -8.330909 -57.980211 19.758094 -2.993062 -5.482938 0.530223 -0.174151 -5.990930 -1.801351 -0.612542 1.853693 -39.330611 3.147896 68.753575 -21.765402 0.055656 2.968838 1.973429 -15.320301 5.227383
17.667547 -133.933304 102.441154 10.255587 -6.176510 6.053695 5.639843 4.386976 -10.304120 -2.036041 3.421881 -2.122445 -0.880559 2.427332 2.882196 1.157611 0.276679 -8.207948 -7.569851 -27.534272 -10.966373 -3.407978 43.796951 7.403577 6.710600 16.093182 3.922846 -3.854453 -7.035200 -1.813202 2.862541 14.238915 -15.782309 5.484823 -2.092515 11.092263 -3.702947 5.758962 -4.159922 -3.260227 -13.873182 0.293587 1.950459 3.348956 1.073257 6.181010 2.776927 -2.539820 17.392950 -9.342093 -57.430910 21.211575 -3.468218 -5.382489 0.655152 0.286045 -5.872361 -1.373588 -0.788095 1.949585 -38.613049 3.901729 68.736427 -23.119988 -0.160076 2.924815 1.749995 -16.421765 5.197558
18.198298 -137.501068 102.028084 9.271749 -6.729510 6.613701 7.414001 7.796791 -11.416499 -2.098841 2.011255 -2.219082 -0.739479 0.521189 4.260254 0.926850 0.770555 -9.364613 -7.334355 -25.986464 -11.594685 -2.487274 31.015759 5.221361 5.665286 18.036651 6.416393 -4.334619 -7.213890 -3.313429 3.699288 15.013894 -17.180497 6.133380 -2.243521 12.560204 -3.932333 6.187699 -4.692307 -2.961831 -13.980124 0.421622 0.871364 3.154211 0.878316 6.742542 2.583906 -1.896770 17.569341 -10.456037 -57.126887 22.379476 -3.891579 -5.290492 0.512495 0.476131 -5.742114 -0.998049 -1.012182 1.942378 -38.224849 4.412262 68.861841 -24.116788 -0.430596 2.885150 1.394512 -17.501464 4.999532
18.753588 -141.219101 101.438377 8.320600 -7.230880 7.437160 8.733576 11.162648 -12.754942 -2.039665 0.850764 -2.342609 -0.228964 -1.424275 5.439949 0.673365 1.360766 -10.514216 -6.751662 -23.573283 -12.420116 -2.043942 16.658556 3.254175 4.431780 19.679861 10.580889 -4.927373 -7.045268 -4.691205 4.508003 15.568743 -18.669373 6.513309 -2.681498 13.453845 -3.930732 7.007475 -4.909817 -2.716136 -14.250090 0.639079 0.021088 2.963273 0.605952 7.206598 2.153135 -0.765023 17.359320 -11.565253 -57.525834 23.300721 -4.330837 -5.311577 0.170782 0.165245 -5.553080 -0.739504 -1.225122 1.724820 -38.274985 4.704125 69.207626 -24.814810 -0.694278 2.815099 0.925503 -18.304843 4.944524
19.377556 -145.031693 100.663040 7.720609 -7.584567 8.343800 9.405562 14.525352 -14.016693 -2.003293 -0.184902 -2.460252 0.749138 -3.430810 6.421148 0.380708 1.971414 -11.560202 -6.329135 -21.539319 -13.231014 -2.085090 3.521286 1.553605 4.271152 19.075828 14.097708 -5.884071 -6.927684 -5.042268 4.929614 15.906266 -20.006209 6.579344 -3.211033 13.860126 -3.713682 7.942984 -4.914543 -2.330809 -14.672093 1.011994 -0.414204 2.556812 0.489950 7.537486 1.654713 0.510333 16.664576 -12.674852 -58.357713 24.248104 -4.848357 -5.403345 0.073746 -0.426537 -5.226469 -0.681812 -1.381075 1.551822 -38.692196 4.781609 69.608207 -24.730848 -1.116765 2.712414 0.556369 -18.868795 5.309177
20.140406 -148.774200 99.836700 7.618762 -7.570387 8.876108 9.540836 17.455710 -14.735538 -2.053810 -0.825669 -2.395585 1.967945 -5.326957 7.068368 0.264680 2.098461 -12.130813 -6.440482 -21.416083 -13.578895 -2.169174 -4.413548 0.491768 6.257403 16.457043 15.604781 -6.612094 -6.947870 -3.827598 4.783538 16.072528 -20.627273 6.559194 -3.206600 13.962866 -3.598686 8.188138 -4.978302 -2.118399 -15.260208 1.383668 -0.066474 2.122110 0.543494 7.476628 1.464943 1.047718 16.059222 -13.777973 -58.606065 25.123319 -5.218314 -5.572042 0.298219 -0.900216 -4.752862 -0.788623 -1.728067 1.911412 -38.749995 4.707846 69.809805 -23.561787 -1.334331 2.927506 0.663540 -19.717237 5.849313
20.983957 -152.535721 99.098961 7.673316 -7.490838 9.019418 9.734825 20.056346 -15.153313 -1.853525 -0.859036 -2.097185 2.304834 -6.723640 7.141716 0.384740 1.465356 -12.106587 -5.947138 -22.928913 -13.230160 -2.045857 -5.436557 0.327222 7.849183 14.545752 16.581236 -6.825192 -7.062006 -2.844633 4.597707 16.335384 -20.805056 6.572238 -2.846171 14.206266 -3.651837 8.015940 -5.213139 -2.231454 -15.861541 1.630987 0.689704 1.738482 0.588930 7.299366 1.604830 1.099382 15.664310 -14.758898 -58.513791 25.863302 -5.346601 -5.430510 0.930654 -1.074908 -4.664942 -0.884658 -1.956140 2.484655 -38.873136 4.273749 69.629064 -21.621090 -1.166755 3.208921 1.340010 -20.714751 6.618566
21.931633 -156.441986 98.427429 7.602287 -7.480464 8.844900 9.502320 22.529604 -15.072712 -1.585556 0.032251 -1.618948 2.384128 -7.753045 6.180840 0.685787 0.672345 -11.932533 -5.527543 -23.755720 -12.533005 -1.957389 -1.873397 1.001689 6.888162 13.201182 16.770716 -7.002167 -7.517010 -3.058313 4.306676 16.590688 -20.778723 6.891876 -2.295802 14.804775 -3.963132 7.641980 -5.539117 -1.990025 -16.271718 1.946820 0.876234 1.922826 0.698099 7.436970 2.061453 1.143541 15.403298 -15.339315 -58.558807 26.400447 -5.402683 -5.036880 1.766379 -1.526370 -4.840399 -0.722445 -2.060342 3.030329 -39.365375 3.907725 69.457952 -19.792447 -1.052320 3.257309 2.215741 -21.101703 7.376871
23.149275 -160.603088 97.932472 7.222439 -6.963167 7.575326 8.236948 24.835888 -13.217871 -1.263272 1.150958 -0.900289 3.040597 -7.683177 3.912738 1.114936 -1.468889 -11.291149 -6.408948 -24.195575 -10.903538 -1.868908 2.699797 1.807162 4.005508 14.481128 14.643390 -7.131852 -8.029878 -4.258834 3.634348 16.108705 -19.073579 7.214241 -1.476094 14.670472 -4.265585 6.878276 -5.679293 -1.349081 -16.632220 2.351195 0.720540 2.292048 0.739721 7.813889 2.264121 -0.042841 14.991980 -15.103606 -57.886314 26.243606 -4.994384 -4.722481 2.615568 -2.376344 -5.198928 -0.573199 -2.174763 4.743714 -38.994602 4.359550 68.799767 -18.454617 -0.609695 3.064971 3.143208 -21.298117 8.045193
24.553047 -165.076721 97.910202 6.545340 -5.878746 4.905848 5.729637 26.723340 -9.114331 -0.806624 2.414088 0.005326 4.231470 -4.566147 0.204334 1.790982 -5.930781 -10.107140 -7.324767 -25.549988 -7.743825 -1.444969 5.949312 2.025683 2.549441 21.015508 12.605315 -6.365731 -8.153774 -5.391900 3.029193 14.844667 -15.221757 7.237595 -0.755378 13.360201 -4.503019 6.189677 -5.317338 -0.827948 -17.253282 2.501279 0.655272 2.504659 0.554803 8.165478 2.094450 -2.488804 14.290709 -14.508387 -56.434961 25.170616 -4.298112 -4.662518 3.462777 -2.469003 -5.445420 -0.568671 -2.486806 7.296643 -37.867556 5.509480 67.663301 -17.407826 0.182532 2.674736 4.185047 -21.272076 8.730373
25.910271 -169.728989 98.109283 5.872657 -4.818650 2.163357 4.331375 26.078927 -4.900948 -0.366014 6.807382 0.192793 4.322389 0.525853 -2.930446 2.864227 -12.778720 -9.030788 -6.688661 -26.996743 -4.325893 -0.891134 9.708471 2.201762 2.269098 24.752425 11.995496 -5.403372 -7.662663 -6.008341 2.902154 13.685881 -11.151583 7.322352 -0.830483 11.819007 -4.782451 5.962070 -4.573984 -0.827292 -17.739284 2.180508 0.451933 2.685892 0.256680 8.179367 1.754302 -3.504363 13.427887 -13.906784 -56.928425 23.255643 -3.793730 -4.817046 3.780986 -2.518557 -5.618329 -0.707733 -2.950653 7.794024 -37.265823 6.149365 67.640559 -16.815686 0.525124 2.744287 4.837344 -19.800662 8.873343
27.155130 -174.418488 98.479820 5.377805 -3.930298 -0.167439 3.500911 23.024141 -1.110746 0.210780 14.147446 -0.203827 3.926941 9.059302 -5.052441 4.444160 -20.887929 -8.252060 -5.245824 -27.139372 -1.151910 -0.275608 12.475693 2.374957 1.636893 24.930408 11.991621 -4.594380 -6.414008 -6.297811 2.973852 12.708206 -7.372216 6.734069 -1.532709 9.900184 -4.648651 6.101836 -3.534508 -1.002563 -17.972200 1.657369 0.146850 2.810757 0.108661 7.991702 1.400931 -3.193725 12.712831 -13.236459 -58.874640 21.467982 -3.632056 -5.027451 3.624021 -3.157974 -5.702907 -0.752355 -3.387884 6.622749 -37.660323 6.288670 68.569264 -16.832579 0.595841 3.027676 5.067777 -18.061937 8.637035
28.344954 -178.922272 99.002808 5.035318 -3.001403 -2.450575 3.271127 17.301204 2.876766 0.891477 24.230073 -1.349074 3.618963 20.754430 -7.515787 5.809652 -25.253647 -7.046149 -3.762244 -26.407913 2.031670 0.397412 14.212053 2.593250 1.137905 22.788491 10.869779 -3.916198 -4.697703 -6.368670 2.973136 11.748584 -3.155011 5.538392 -2.576815 6.993261 -4.204709 6.516521 -2.103309 -1.523850 -18.154966 1.265747 0.092747 2.949084 0.084472 7.816526 0.749768 -2.370229 11.892104 -12.338746 -61.178086 20.161443 -3.377124 -5.301797 3.153523 -4.379841 -5.776881 -1.076821 -3.553667 4.957880 -38.320326 6.054568 69.305629 -17.278787 0.623295 3.458252 5.258688 -16.588827 8.243335
29.314053 -183.116043 99.567291 4.882438 -2.139737 -4.453641 4.121371 9.901308 6.339279 1.183828 35.239266 -2.137731 4.609214 32.291976 -12.389888 4.679017 -17.877175 -5.310380 -2.761952 -25.435016 4.806680 1.011657 15.999853 2.832127 1.052015 17.689882 8.907433 -3.793218 -3.879384 -5.435540 2.688302 10.965352 1.165143 4.066861 -3.597012 3.508219 -3.778605 7.399508 -0.817188 -1.648744 -18.882949 1.246868 -0.058793 2.733627 0.109913 7.921367 -0.033041 -2.105715 11.675772 -11.457684 -62.232884 19.533345 -3.075915 -5.493592 2.912388 -5.089431 -6.242011 -1.434119 -3.855240 4.116675 -39.101649 5.987765 69.122936 -18.148376 0.789825 3.501156 5.409159 -15.163310 8.377874
30.089199 -187.012405 100.005890 5.094319 -1.614273 -5.977503 5.230720 2.316946 8.766359 1.575014 45.209244 -2.564209 6.428713 39.227049 -16.791877 1.422153 -7.672015 -4.191875 -2.294959 -23.792924 6.983179 1.601841 16.823441 2.875869 0.590661 13.345747 7.396277 -3.604142 -3.194201 -4.393849 1.897150 10.572256 5.114309 2.591411 -4.300393 -0.033116 -3.276728 8.340230 0.132378 -1.829103 -19.703090 1.584315 0.202750 2.004902 -0.129303 7.856257 -0.600809 -2.152004 11.828028 -10.911271 -62.458572 19.424118 -2.670419 -5.600029 3.021985 -5.610879 -6.746958 -1.901692 -4.180441 3.918359 -40.177051 5.922919 67.914148 -19.172029 0.965755 3.437412 5.441111 -14.069641 8.371929
30.753199 -190.711090 100.470390 5.932303 -1.574861 -6.987204 5.204826 -4.966955 10.535451 3.800035 54.042094 -4.905505 4.893644 36.357013 -15.315317 1.240320 -6.831694 -3.942117 -2.950969 -21.391907 8.470144 2.194524 16.739778 2.797807 -0.013538 9.943159 6.157550 -3.350413 -2.695981 -3.292769 0.619450 10.568420 8.272471 1.188797 -4.410766 -3.183061 -2.725305 8.664137 0.879377 -2.290117 -19.962450 1.797401 0.729156 1.077395 -0.316088 7.439765 -0.860127 -2.518920 12.140636 -10.416525 -62.357840 19.327179 -2.304771 -5.713574 3.338971 -5.791919 -6.900572 -2.415637 -4.225776 3.876497 -41.555256 5.569788 65.920598 -19.922585 1.080210 3.359571 5.525590 -13.146102 8.249573
31.363621 -194.259888 100.937607 7.188247 -2.018034 -7.755594 3.954223 -11.593648 12.006815 6.163717 59.320174 -7.401205 1.873736 32.232552 -12.157137 1.719040 -7.500734 -3.604423 -4.326733 -18.131855 9.716386 2.780284 15.605880 2.580988 -0.666432 7.286116 4.923469 -3.141474 -2.308783 -2.093322 -1.075085 10.861739 10.952171 -0.023119 -4.128452 -5.901949 -2.169997 8.615543 1.404195 -2.920190 -19.793688 1.849545 1.447297 0.500199 -0.463758 6.881613 -0.991171 -2.728614 12.389720 -9.781815 -62.421193 19.097320 -1.968544 -5.798003 3.511205 -5.641202 -6.764157 -2.920357 -4.132138 3.597754 -43.028831 4.656072 63.736697 -20.118556 1.027229 3.262436 5.611366 -12.008202 8.158060
31.934088 -197.713058 101.382187 8.622595 -2.795304 -8.461346 1.786273 -17.355382 13.330906 7.318325 60.810895 -8.494428 -1.318596 29.140519 -9.248674 2.226109 -8.189676 -3.126163 -6.160505 -14.090326 11.013953 3.318272 13.334497 2.201903 -1.333560 5.338767 3.671510 -3.002695 -2.136939 -0.733266 -2.951006 11.298364 13.407276 -1.092852 -3.464349 -8.249769 -1.603270 8.172783 1.722189 -3.615805 -19.281275 1.761180 2.126001 0.165711 -0.527144 6.232646 -0.962024 -2.840652 12.504312 -8.982107 -62.596105 18.826735 -1.746497 -5.858539 3.411193 -5.087461 -6.500556 -3.396734 -3.915147 3.117460 -44.236028 3.243091 61.536371 -20.085023 0.846495 3.166711 5.537329 -10.615459 8.022681
32.453339 -201.198822 101.754448 10.058030 -3.739551 -8.997620 -0.667677 -22.053536 14.271688 7.030627 59.007922 -7.962748 -3.432045 26.622160 -7.575193 2.689093 -8.731889 -2.607258 -8.073747 -9.546734 12.228860 3.758209 10.416421 1.773800 -2.222879 3.830605 2.515502 -2.869095 -2.172073 0.737613 -4.690686 11.864092 15.536302 -2.080615 -2.591628 -10.284655 -0.991626 7.427426 1.887018 -4.311446 -18.564606 1.591474 2.796804 -0.120105 -0.546250 5.483151 -0.736878 -3.012202 12.467103 -8.020346 -62.701849 18.673952 -1.628278 -5.927585 3.171314 -4.394089 -6.208696 -3.935901 -3.631426 2.477596 -45.046099 1.475584 59.475396 -20.122036 0.576257 3.107506 5.258289 -9.304748 7.840804
32.907192 -204.779144 102.031433 11.377780 -4.630576 -9.218714 -2.805721 -25.527379 14.518692 5.768981 54.187146 -6.312602 -3.954533 24.337213 -7.523205 3.123963 -9.250114 -1.966874 -9.731208 -4.921244 13.069454 4.054219 7.499527 1.458007 -3.325930 2.568081 1.597448 -2.707017 -2.280069 2.152478 -6.063591 12.542360 17.146330 -3.049284 -1.804349 -12.071575 -0.369494 6.684231 2.035423 -4.951314 -17.862637 1.346709 3.500980 -0.407037 -0.550859 4.738202 -0.484264 -3.342125 12.415045 -6.845186 -62.672519 18.660334 -1.579840 -6.046111 3.032583 -3.605749 -5.931826 -4.519399 -3.466535 1.698544 -45.556123 -0.431338 57.746499 -20.437886 0.261305 3.033939 4.855380 -8.524051 7.641032
33.280052 -208.470840 102.154282 12.647971 -5.299664 -9.197708 -4.477707 -27.721231 14.176321 4.102190 46.577448 -4.103366 -3.604439 22.711293 -8.734950 3.606437 -9.843367 -0.926555 -11.225398 -0.754304 13.474672 4.179081 5.243156 1.357784 -4.269387 1.213291 0.809763 -2.563842 -2.329539 3.379682 -7.121116 13.247797 18.278050 -3.990535 -1.354648 -13.618089 0.169822 6.261026 2.229279 -5.494188 -17.339672 0.991734 4.164024 -0.812672 -0.602054 4.097034 -0.345419 -3.809082 12.455168 -5.491226 -62.620454 18.666499 -1.547042 -6.199044 3.158687 -2.917611 -5.729560 -5.018660 -3.413297 0.928953 -46.059602 -2.207574 56.295093 -21.219245 -0.035522 2.816537 4.255868 -8.687972 7.348877
33.560333 -212.161926 102.098129 13.901170 -5.722601 -9.115933 -5.569872 -28.526365 13.587763 2.524423 36.318915 -1.915513 -3.575612 22.658103 -10.160170 4.274000 -10.322871 0.600988 -12.667565 2.674918 13.618281 4.157099 3.863472 1.441008 -5.016133 -0.302069 -0.071631 -2.471081 -2.249945 4.414283 -8.002523 13.835262 19.144959 -4.810993 -1.163292 -14.956392 0.580612 6.151805 2.521592 -5.914750 -16.964581 0.507682 4.632710 -1.378068 -0.696179 3.571041 -0.343314 -4.315740 12.670763 -4.096316 -62.778661 18.492821 -1.514448 -6.328403 3.379559 -2.337587 -5.576897 -5.316201 -3.405215 0.299878 -46.749388 -3.653915 55.055093 -22.473306 -0.277097 2.443708 3.534207 -9.732800 6.867266
33.779301 -215.798111 101.844528 15.163604 -6.068298 -9.196135 -5.958590 -27.705654 13.212313 1.365260 23.925484 -0.067923 -3.999505 23.820968 -11.709305 5.195278 -10.537465 2.502828 -13.981947 5.521540 13.835882 4.019744 3.316426 1.685535 -5.772305 -1.989582 -1.333822 -2.336756 -2.023389 5.389762 -8.775957 14.244940 20.120755 -5.483890 -1.074665 -16.283364 0.897679 6.271019 2.991906 -6.346784 -16.596654 -0.072399 4.756976 -2.142913 -0.783667 3.088482 -0.444694 -4.738135 13.096979 -2.713178 -63.331800 17.997102 -1.483243 -6.412361 3.417501 -1.657615 -5.547528 -5.489800 -3.440918 -0.264428 -47.526760 -4.774413 54.207086 -24.091442 -0.514516 1.951144 2.776789 -11.078851 6.276209
33.979946 -219.531876 101.366188 16.408943 -6.452318 -9.621672 -5.819779 -25.398992 13.460330 0.689599 10.423882 1.451735 -4.490645 24.588967 -14.064171 6.385830 -10.438665 4.283853 -15.229815 8.154913 14.140861 3.745669 3.296992 2.099097 -6.479222 -3.946510 -2.683764 -2.073835 -1.662825 6.460834 -9.397914 14.391125 21.500273 -5.979361 -1.023360 -17.761971 1.113665 6.606057 3.684019 -6.949040 -16.150607 -0.698071 4.655747 -2.966467 -0.846325 2.595168 -0.709665 -4.895578 13.414131 -1.320408 -64.417719 17.199450 -1.454636 -6.553085 3.213209 -0.563966 -5.795137 -5.696213 -3.523158 -0.954266 -48.136338 -5.678213 53.988959 -26.092537 -0.824839 1.495777 1.947001 -12.253342 5.798701
34.193226 -223.551437 100.628281 17.520103 -6.773601 -10.289778 -5.575065 -22.734246 14.125506 0.520135 -2.197317 2.699919 -5.669294 23.948321 -17.066172 7.700194 -10.401459 5.128295 -16.520543 10.821108 14.743367 3.335288 3.298389 2.536795 -7.083550 -6.110750 -4.180214 -1.761729 -1.393106 7.501349 -9.747811 14.181664 23.078354 -6.266305 -1.000146 -19.251599 1.183452 7.066046 4.462131 -7.548144 -15.643072 -1.254996 4.609605 -3.417063 -0.859325 2.049196 -0.957681 -4.896953 13.570429 -0.021234 -65.730188 16.266294 -1.411359 -6.794080 3.125095 0.687709 -6.361729 -5.994627 -3.643477 -1.733174 -48.179204 -6.468257 54.546841 -28.401959 -1.101300 1.216612 0.840556 -13.220247 5.497947
34.384876 -227.790024 99.761971 18.293977 -6.841441 -10.855217 -5.348782 -21.826335 14.672463 0.633581 -9.469466 3.415783 -7.893007 21.960926 -18.931427 8.424768 -10.814507 4.409863 -17.632787 13.605226 15.279429 2.964702 3.002950 2.738087 -7.609768 -8.019674 -5.284367 -1.631946 -1.601218 8.135923 -9.755878 13.805407 24.286840 -6.376557 -1.024892 -20.327145 1.149070 7.499093 4.987018 -7.892037 -15.508799 -1.712456 4.705828 -3.135552 -0.778966 1.492389 -1.242061 -5.400213 13.783229 1.091819 -66.432767 15.087126 -1.376145 -6.995324 2.784587 1.594791 -7.291379 -6.369835 -3.838944 -1.959174 -47.286253 -6.828220 55.521667 -30.743167 -1.066442 1.078494 -0.389549 -13.866750 5.530771
34.532200 -232.239410 99.040131 18.729670 -6.701085 -11.221104 -5.757155 -22.837418 14.771560 0.757390 -10.097883 3.412674 -9.753258 20.237089 -19.363711 8.585628 -11.213220 3.521572 -18.617469 16.579535 15.865678 2.629227 2.289187 2.390161 -7.712887 -8.564427 -5.361754 -1.736724 -2.100154 8.230652 -9.691528 13.568849 25.087960 -6.610824 -1.084994 -21.057637 1.206043 7.878733 5.190300 -7.826262 -15.921532 -1.981622 4.184114 -2.779407 -0.860637 0.986996 -1.532188 -6.329221 13.948377 1.736983 -66.407891 13.633177 -1.106256 -6.986144 1.828612 1.887442 -8.537703 -6.798747 -3.948756 -1.602364 -45.804914 -6.680587 56.582329 -32.606935 -0.994024 0.947188 -1.091864 -13.921955 5.405244
34.607513 -236.810638 98.471115 18.957080 -6.421673 -11.034446 -6.782229 -24.369748 13.972603 0.830923 -5.926647 2.746307 -9.412726 20.749771 -17.940110 8.903938 -11.949405 4.110181 -19.017574 18.627369 15.546249 2.506309 3.124979 2.192055 -7.858687 -8.592293 -4.983311 -2.117463 -3.828572 7.968800 -9.548958 13.421755 24.832781 -6.840820 -0.884803 -20.971006 1.253838 7.708496 5.058232 -7.976857 -16.382177 -2.235284 4.245029 -2.258232 -0.886290 0.710000 -1.756704 -7.648382 13.882537 2.106850 -65.856380 12.117746 -0.501864 -6.835328 0.348074 1.168102 -9.205599 -6.997788 -3.370236 -0.845029 -44.855583 -5.970411 57.368890 -33.690634 -0.948451 0.525407 -1.286493 -14.573371 4.967588
34.451744 -241.385727 98.277512 18.865306 -5.320951 -9.281023 -6.491337 -25.869669 11.480622 0.552486 -0.814078 1.939968 -7.431026 24.871135 -14.968911 8.327885 -11.545287 5.720257 -17.262417 17.978874 11.772826 2.378926 8.399491 3.197241 -8.397619 -8.164730 -3.856114 -2.774314 -6.791153 7.191231 -8.969017 12.536318 22.131378 -6.828593 -0.374736 -19.928857 1.315840 7.114281 4.681097 -7.832292 -17.063198 -2.284795 5.044781 -1.152603 -0.607476 0.613716 -2.073090 -9.589741 13.703690 2.459464 -64.652382 10.496239 0.058632 -6.319181 -1.126660 -0.313162 -9.528734 -7.079549 -3.030779 0.413212 -44.003467 -4.619590 58.578411 -33.154802 -0.686398 0.147730 -1.007516 -15.270157 4.325905
34.135212 -246.207474 98.337646 18.283485 -3.896261 -6.681467 -5.304616 -27.024417 8.101732 0.079630 3.496992 1.466621 -5.942152 30.143452 -13.251462 6.563087 -9.555500 6.768757 -14.740420 16.383402 6.791314 2.110884 15.039482 4.111558 -8.993948 -4.818754 -1.367249 -3.803731 -11.771770 6.099754 -8.294819 11.175227 18.305084 -6.664451 -0.000781 -18.750326 1.328249 6.641539 4.375498 -7.398888 -17.680202 -2.098061 6.040428 0.047254 -0.262765 0.561612 -2.134403 -10.733616 13.365541 2.319569 -63.700405 9.312832 0.280448 -5.819900 -1.907507 -1.494219 -9.674497 -6.964973 -2.933764 1.014669 -42.936104 -3.599850 60.768424 -31.018798 -0.431129 0.356758 -0.570512 -15.783272 3.609236
33.760929 -251.137283 98.545776 17.114682 -2.751118 -4.118778 -4.175425 -28.115499 4.895658 -0.083825 8.946894 0.642161 -5.754233 29.635194 -11.160366 5.182567 -7.518949 6.126126 -12.528622 13.390663 2.257107 1.877391 23.452614 4.976120 -9.058095 1.997822 1.734143 -5.322756 -18.878545 4.744144 -7.590447 10.040595 14.540180 -6.372901 -0.003894 -17.628197 1.166113 6.300338 4.136374 -6.582268 -17.840602 -1.764750 6.901151 0.715224 -0.094863 0.668350 -1.996923 -10.453280 12.839466 1.728947 -63.398900 9.038985 0.118133 -5.556590 -2.089495 -1.739219 -9.271406 -6.540576 -2.565854 0.617631 -42.249363 -3.327910 63.577927 -27.592002 -0.182888 1.128743 0.433340 -16.037502 3.295227
33.504505 -255.903870 98.800049 15.948385 -1.916446 -1.905735 -4.025405 -28.359549 1.970380 -0.026700 13.463104 -0.502762 -5.634106 26.102363 -8.748390 4.279444 -5.302986 5.231090 -11.505194 8.713375 -1.462892 1.743896 33.207916 5.913970 -8.830322 12.774479 5.360777 -6.998515 -24.351194 2.971134 -7.246497 8.949759 10.837424 -5.927333 -0.270796 -15.797641 0.876702 6.288040 3.722848 -5.712786 -17.766730 -1.421167 7.439381 0.877664 -0.084616 1.079887 -1.741447 -9.487389 12.703119 1.012505 -63.534831 9.695404 -0.329305 -5.390277 -1.722029 -2.277030 -8.910803 -5.954555 -2.102292 0.004496 -42.125647 -3.102066 66.085856 -24.063500 -0.047989 1.874421 1.478328 -15.458743 3.882907
33.344795 -260.319427 99.178902 14.949773 -1.284532 0.287712 -3.629502 -27.520251 -0.705576 -0.167970 16.535537 -1.651896 -6.134759 20.413772 -5.920910 3.719745 -4.301282 3.483269 -11.739084 2.527098 -4.782521 1.398534 43.888292 6.775876 -8.581807 23.855739 9.909570 -5.746821 -20.249326 1.545281 -6.741731 8.335811 6.573785 -5.301647 -1.103861 -13.048719 0.583940 6.828984 3.125687 -5.071064 -17.754315 -1.224187 7.627851 0.988114 -0.009926 1.566119 -1.738959 -8.402619 12.759597 0.170982 -63.638196 10.704356 -0.298844 -5.369022 -1.235519 -3.038078 -8.658671 -5.532233 -2.044225 -0.376949 -43.051656 -2.609616 67.904905 -20.580097 -0.267035 2.510452 3.109667 -14.404533 4.892845
33.341614 -264.510773 99.655975 13.915057 -0.852981 2.426207 -2.463408 -25.591757 -3.176472 -0.468995 17.474047 -2.378375 -7.191962 16.372501 -3.417259 3.300163 -3.701119 1.323798 -12.611041 -4.127780 -7.655517 0.513910 53.640104 7.738378 -8.649947 32.439023 13.576796 -1.620717 -9.186256 1.347856 -5.657803 8.196966 2.024054 -4.439382 -2.079821 -9.708700 0.317083 7.622448 2.259672 -4.783031 -18.026987 -1.068036 7.324498 0.958410 0.132607 2.139745 -1.547028 -7.747675 13.088852 -0.913821 -63.077963 11.975818 -0.225147 -5.358423 -0.661643 -3.282905 -8.560907 -5.214022 -2.247933 0.013875 -44.093500 -1.904083 68.690289 -18.052418 -0.721695 2.950547 4.291646 -13.409559 5.789446
33.501869 -268.608246 100.348213 12.690444 -0.815949 4.024053 -0.866952 -22.651584 -5.116979 -0.927867 16.908261 -2.630766 -8.112081 13.488014 -1.889901 2.930951 -2.704039 -0.147158 -12.882846 -10.538819 -9.813987 -2.229338 61.892573 10.305925 -6.295631 30.706449 11.971861 -1.286124 -6.725475 1.531504 -4.149073 8.462061 -1.737900 -3.059040 -2.664761 -6.455686 -0.122292 7.954379 1.424437 -4.846814 -18.085471 -1.064932 7.318411 0.720160 0.246287 2.605756 -1.021993 -7.499904 13.966750 -2.409533 -61.911615 12.963672 -0.235458 -5.354752 -0.134706 -2.727754 -8.287663 -4.691914 -2.156400 0.701551 -44.369817 -1.340801 68.757017 -16.580889 -0.404989 3.295272 5.203422 -13.125207 6.455712
33.767860 -272.544800 101.163948 11.224336 -1.358965 4.845853 0.589440 -18.522500 -6.359691 -1.362229 14.967851 -2.618538 -8.056482 11.446159 -0.908419 2.609434 -1.906085 -1.463885 -12.437313 -15.913505 -10.844042 -5.139495 66.389423 12.937310 -2.621713 26.874848 8.716968 -1.930506 -6.452276 1.598765 -2.544252 9.163273 -4.567347 -1.320151 -2.889780 -3.054400 -0.798974 7.782566 0.460258 -4.780909 -17.703252 -1.101342 7.048507 0.961000 0.443222 3.215745 -0.208562 -6.942194 15.191741 -4.267572 -60.836126 13.645051 -0.564915 -5.413065 0.140791 -1.254903 -8.302260 -3.958969 -2.079624 1.015864 -43.851534 -0.612310 69.052419 -16.172043 -0.030738 3.489501 5.599819 -13.371932 6.649521
34.043152 -276.340424 101.927773 9.726537 -2.246026 5.122347 1.691764 -13.645360 -7.136007 -1.717506 12.166405 -2.466059 -7.232043 9.881192 -0.152565 2.362377 -1.301824 -2.776366 -11.380841 -20.156864 -11.097134 -6.627908 67.215259 14.013085 1.354150 23.538815 5.762486 -2.545823 -6.276816 1.535235 -1.097374 10.136253 -6.757005 0.512948 -2.910831 0.378832 -1.545418 7.298812 -0.597765 -4.451938 -16.992391 -0.967755 6.437955 1.521113 0.637137 3.877062 0.682621 -5.828083 16.259112 -6.257196 -60.199574 14.609992 -1.141384 -5.541894 0.244794 0.595903 -8.368570 -3.301803 -1.971061 1.024308 -42.760844 0.410015 69.563200 -16.709773 0.169631 3.462584 5.197186 -13.714043 6.391195
34.286575 -280.050293 102.518784 8.330204 -3.204530 5.179209 2.544043 -8.615274 -7.727258 -1.967773 9.132301 -2.253018 -6.117654 8.570242 0.506388 2.159297 -0.833730 -4.018193 -9.934995 -23.439157 -11.072452 -6.417565 65.050866 13.189882 4.865696 20.462189 3.916466 -3.140807 -6.277893 1.356390 0.162966 11.199500 -8.596881 2.179679 -2.867928 3.620344 -2.262324 6.809926 -1.655317 -3.901673 -16.343590 -0.617606 5.704240 2.062817 0.775964 4.625247 1.367057 -4.450070 17.077112 -8.098220 -59.790519 16.219295 -1.842055 -5.688206 0.284112 2.314048 -8.418108 -2.745398 -1.883754 1.095483 -41.395607 1.724204 69.920043 -17.854550 0.215091 3.366390 4.280409 -13.949307 5.844375
34.531384 -283.696747 102.850487 7.110636 -4.098987 5.231683 3.309471 -3.806698 -8.269374 -2.123446 6.423436 -2.075097 -5.089094 7.100566 1.185874 1.961873 -0.518387 -5.084971 -8.405659 -25.851541 -11.007405 -5.283430 60.412518 11.214379 7.602178 17.929262 3.066498 -3.618501 -6.499072 0.963514 1.260397 12.256160 -10.226820 3.492925 -2.798292 6.439509 -2.804445 6.493103 -2.622729 -3.292335 -16.011002 -0.126178 4.982388 2.407922 0.845042 5.384808 1.755512 -3.259640 17.910847 -9.640784 -59.154599 18.328868 -2.576343 -5.759856 0.296419 3.692113 -8.468751 -2.241105 -1.905739 1.472152 -40.102861 3.049559 69.882203 -19.042351 0.181128 3.277447 3.313229 -14.218695 5.252740
34.805531 -287.255554 102.910927 6.037157 -4.945462 5.390011 3.923447 0.504115 -8.817834 -2.196658 4.268294 -1.975600 -4.097508 5.533967 1.948091 1.706969 -0.188635 -6.113686 -7.015814 -27.287776 -11.052360 -4.010390 53.372185 8.910414 8.834155 16.450610 3.291988 -3.931684 -6.872094 0.194392 2.238262 13.311503 -11.792716 4.552188 -2.752815 8.813089 -3.220683 6.364882 -3.467877 -2.676043 -15.933195 0.423881 4.328326 2.542039 0.927488 6.135943 1.913992 -2.350218 18.855608 -10.898900 -58.152287 20.571115 -3.243864 -5.752932 0.363623 4.924206 -8.594999 -1.709191 -2.069330 2.039001 -39.019530 4.074080 69.621670 -19.965045 0.089371 3.227912 2.605536 -14.493132 4.738098
35.153416 -290.811371 102.728699 5.136939 -5.716645 5.682577 4.335442 4.500697 -9.348877 -2.243728 2.671166 -1.959672 -2.993040 3.627852 2.758496 1.418090 0.325003 -7.244665 -5.917686 -27.402864 -11.297925 -2.851008 43.654518 6.629837 8.108924 16.460577 5.038937 -4.189075 -7.261262 -1.018795 3.091813 14.287707 -13.339814 5.470861 -2.795474 10.762975 -3.568378 6.434054 -4.168701 -2.102867 -15.995619 0.938993 3.530255 2.574722 1.035817 6.815257 1.919111 -1.635437 19.769913 -11.967692 -56.967201 22.566093 -3.816787 -5.712918 0.585081 5.986585 -8.854034 -1.157987 -2.313100 2.507320 -38.244858 4.632512 69.471122 -20.550581 -0.132173 3.186990 2.188803 -14.719755 4.158654
35.606968 -294.471893 102.342674 4.465011 -6.365237 6.137579 4.508079 8.268035 -9.901955 -2.282364 1.433985 -1.983727 -1.848854 1.540354 3.553452 1.112121 0.961086 -8.469225 -5.194412 -26.056166 -11.750994 -2.011131 31.475058 4.634394 6.493826 16.815614 8.062958 -4.561574 -7.271576 -2.411450 3.757486 15.050366 -14.888085 6.272001 -2.969244 12.285249 -3.829793 6.726265 -4.712232 -1.651566 -16.146818 1.408209 2.598383 2.572182 1.088916 7.347133 1.802156 -0.923630 20.712984 -12.812026 -55.884157 24.154752 -4.296916 -5.550063 0.878930 6.631531 -9.234753 -0.636488 -2.544842 2.685623 -37.841118 4.743411 69.649883 -20.956045 -0.347006 3.118935 1.832146 -14.984946 3.459148
36.160381 -298.218445 101.762711 4.004667 -6.935656 6.835439 4.423218 12.027554 -10.490563 -2.256537 0.466225 -2.108026 -0.745526 -0.637201 4.217009 0.793197 1.611080 -9.777945 -5.032992 -23.570283 -12.555547 -1.682567 17.925119 2.957085 5.317433 16.021689 11.495652 -5.209972 -7.020589 -3.668983 4.186495 15.569734 -16.487442 6.914252 -3.419117 13.302317 -3.930239 7.397544 -5.053224 -1.301299 -16.453360 1.895053 1.946435 2.582846 1.075948 7.716192 1.511770 -0.037574 21.581159 -13.457794 -55.170079 25.401952 -4.646217 -5.251653 0.974856 6.618915 -9.607913 -0.201860 -2.744277 2.667362 -37.789268 4.584854 70.106703 -21.298447 -0.472559 3.066818 1.312638 -15.333405 2.977680
36.834686 -302.128540 101.013252 3.873666 -7.336263 7.561332 4.113454 15.808491 -10.948766 -2.304268 -0.609892 -2.218581 0.302383 -2.715068 4.606428 0.477707 2.163733 -11.017502 -5.743982 -20.929169 -13.510089 -1.793836 5.284858 1.454837 5.385576 13.846138 13.957903 -6.310229 -7.077040 -4.150908 4.144246 15.768139 -17.822755 7.401575 -3.844192 13.821298 -3.903619 8.102352 -5.208844 -0.890387 -16.797269 2.372476 1.547599 2.536011 1.194894 7.913611 1.112232 0.702370 21.858251 -14.099084 -54.754777 26.420457 -5.075901 -4.994822 0.929051 6.268964 -9.852107 -0.054811 -2.860013 2.771743 -38.109615 4.347110 70.556737 -21.149327 -0.692551 2.993355 0.785005 -15.788604 2.862828
37.669651 -306.198975 100.201271 4.138530 -7.548823 8.012082 3.804549 19.637346 -11.179798 -2.390419 -1.860215 -2.038169 1.330613 -4.327590 4.569892 0.356841 2.180933 -11.882058 -6.892214 -19.751108 -14.161717 -1.988359 -3.073586 0.361043 6.953410 11.576868 15.012464 -7.030250 -7.098723 -3.526438 3.714408 15.814858 -18.505574 7.666059 -3.919332 13.888381 -3.871558 8.333873 -5.277902 -0.575081 -17.252062 2.776962 1.827949 2.490614 1.371529 7.862312 0.842786 0.935832 21.501180 -14.926593 -54.286982 27.274908 -5.397364 -4.930482 0.912407 5.595487 -9.866270 -0.113798 -3.042228 3.363410 -38.409850 4.144040 70.671336 -20.292652 -0.728623 3.111118 0.587723 -16.728580 3.111661
38.574909 -310.275177 99.387650 4.644217 -7.789711 8.310479 4.061529 23.261443 -11.658204 -2.207924 -2.821112 -1.479545 1.447367 -5.315245 4.240291 0.476334 1.500646 -12.201244 -7.324034 -20.579143 -14.381502 -2.046251 -4.727311 0.125725 8.098098 10.234607 15.890859 -7.266308 -7.152807 -2.982400 3.378801 16.042405 -18.938846 7.825866 -3.763272 13.951472 -3.917743 8.281547 -5.408532 -0.559807 -17.861917 3.087351 2.434819 2.304998 1.464568 7.655256 0.833876 1.002682 20.750210 -15.911233 -53.980061 28.105810 -5.499586 -4.753165 1.148572 4.770391 -10.081948 -0.302203 -3.167060 4.151058 -38.711869 3.768689 70.332431 -19.140517 -0.553145 3.295025 0.752520 -18.200076 3.526111
39.550632 -314.454895 98.573555 5.065096 -8.104018 8.503008 4.833232 26.479339 -12.358259 -1.886538 -2.953135 -0.665024 0.748292 -5.869783 3.399091 0.798816 0.641155 -12.329632 -7.365570 -21.636501 -14.386079 -2.114919 -1.472598 0.744796 7.211222 9.718446 15.943392 -7.378639 -7.520424 -3.315621 3.214466 16.382960 -19.354871 8.230994 -3.586626 14.221806 -4.170725 8.233114 -5.541395 -0.417366 -18.518332 3.453471 2.639563 2.501917 1.609103 7.587730 1.029716 1.269529 19.894491 -16.592008 -54.219478 28.739093 -5.547395 -4.311884 1.908569 3.597610 -10.343106 -0.410097 -3.349230 4.592511 -39.381034 3.348786 70.117458 -18.231541 -0.606725 3.303093 1.159899 -19.134376 4.023567
40.698193 -318.710175 97.860641 5.142849 -7.996707 7.838513 4.819273 28.031474 -11.398399 -1.554473 -0.911992 -0.387549 0.340603 -6.498915 2.333267 1.291720 -1.319061 -11.913031 -8.120668 -22.410011 -13.542592 -2.134900 3.429029 1.600167 4.439263 11.759264 14.349627 -7.498653 -8.154990 -4.602310 2.906263 16.126025 -18.498064 8.583827 -3.263313 13.941132 -4.384937 7.917311 -5.516175 0.096346 -19.139895 3.921164 2.549247 3.135828 1.711083 7.614913 1.062454 0.885977 18.845378 -16.538095 -54.625283 28.724816 -5.344197 -4.023142 2.905101 2.105551 -10.588366 -0.468958 -3.552017 5.633767 -39.620238 3.444730 69.612732 -17.743183 -0.389018 3.154714 1.747824 -19.760269 4.596046
41.991016 -322.834503 97.688385 4.866772 -7.216438 5.578953 2.830236 27.084363 -7.095768 -1.122082 4.365097 -1.005728 0.864365 -5.625785 0.259312 1.920773 -5.620793 -10.903855 -9.160724 -23.928504 -10.929371 -1.797760 7.068126 1.939432 2.217761 19.147873 13.254551 -6.583122 -8.337913 -5.949547 2.611326 15.042727 -15.374299 8.457750 -2.888132 12.534876 -4.506303 7.498027 -4.997829 0.703863 -19.960037 4.260854 2.505623 3.592612 1.587686 7.609747 0.817849 -0.873092 17.396616 -16.059000 -54.456743 28.004223 -4.810264 -4.172943 3.411563 1.362166 -10.298598 -0.573486 -3.998964 7.833268 -38.818382 4.290598 68.417051 -17.309201 0.382736 2.849050 2.490326 -20.948986 5.669418
43.357903 -327.075806 97.874054 4.644324 -6.330202 2.669797 1.306657 24.535816 -2.107451 -0.695539 11.726852 -1.853951 0.897943 -1.539064 -2.339790 3.057393 -13.051236 -9.870637 -9.144651 -25.565294 -7.268659 -1.183483 10.966867 2.182392 1.131761 24.735044 13.135742 -5.166705 -7.483836 -6.667655 2.476109 13.826843 -11.493585 8.270418 -2.777947 11.028527 -4.681157 7.183222 -4.234670 1.017053 -20.582141 4.266596 2.259775 3.874322 1.322157 7.484704 0.538127 -2.226344 15.796852 -15.406321 -55.330829 26.274635 -4.342793 -4.509203 3.221371 0.803150 -9.797544 -0.844760 -4.515908 8.873337 -37.758872 4.797582 67.693085 -17.038330 0.839537 2.788136 3.297234 -21.090782 6.307523
44.618671 -331.401398 98.243561 4.757790 -5.722139 0.366017 0.822699 20.820979 1.631392 -0.197345 20.240272 -2.870760 0.487253 6.807197 -4.237609 4.813126 -21.236145 -9.087202 -8.327480 -26.044343 -3.977495 -0.540760 14.520568 2.615182 0.137881 24.567213 12.704826 -4.255999 -5.917098 -6.763931 2.458079 12.771620 -8.327827 7.786255 -2.844459 9.603436 -4.737644 6.861175 -3.384109 0.930462 -20.570688 3.908942 1.991087 4.309409 1.463083 7.194667 0.318305 -2.500097 14.371028 -14.510630 -57.446391 23.770388 -4.098978 -4.800544 2.476145 -0.299741 -9.078028 -0.991052 -4.806896 7.586322 -37.391606 4.290361 68.336564 -17.235604 0.741896 3.010676 3.831165 -19.797161 6.459583
45.758717 -335.648590 98.732628 4.949534 -5.106129 -1.632773 1.157729 15.332955 4.778254 0.252278 30.137947 -4.103126 0.317614 18.333049 -6.063963 6.224937 -25.201164 -7.606535 -7.122668 -25.794510 -0.949515 0.065472 17.261334 3.121832 -0.659328 21.500011 11.208046 -3.640637 -4.278694 -6.548115 2.649721 11.754544 -5.160040 6.873712 -3.069709 7.568182 -4.512962 6.593088 -2.305167 0.379412 -20.267289 3.582476 1.877729 4.984671 1.688389 6.725843 -0.035842 -2.401016 12.668560 -13.506062 -59.879258 21.142507 -3.555177 -5.204075 1.626140 -2.713547 -8.340245 -1.574956 -4.963766 5.358816 -36.950856 3.448308 69.300833 -18.045844 0.472333 3.429062 4.070932 -18.191042 6.072793
46.671120 -339.519348 99.186974 5.086212 -4.527398 -3.386064 2.299253 8.618235 7.228314 0.118373 40.407157 -4.512975 0.082953 29.610921 -8.941446 4.976061 -17.433889 -5.501097 -6.079091 -24.999977 1.666352 0.641431 19.250914 3.516653 -1.168766 16.595374 8.934001 -3.530870 -3.464547 -5.640697 2.678122 10.990169 -1.822680 5.626586 -3.362638 4.976302 -4.262206 6.735585 -1.245045 0.292150 -20.517216 3.392937 1.660268 5.455071 1.872632 6.663127 -0.476110 -2.656186 11.853541 -12.549939 -61.292880 19.022354 -2.925753 -5.489053 0.764157 -4.715212 -8.119081 -2.067563 -5.166036 3.789608 -36.725513 2.959321 69.492222 -19.459819 0.401498 3.607724 4.172922 -16.846614 5.993661
47.464867 -343.038544 99.561172 5.220921 -4.006594 -5.203380 3.738175 1.386408 9.364055 -0.016832 49.624911 -4.322231 -1.180738 38.414143 -10.248142 1.159435 -6.705005 -3.961391 -5.373709 -23.574961 4.240785 1.347610 19.845626 3.585771 -1.659633 12.716827 6.929203 -3.424503 -2.736545 -4.542866 2.226943 10.494859 2.040755 4.179588 -3.564336 1.875051 -3.871893 7.082404 -0.240362 0.293974 -21.029615 3.519280 1.574130 5.400492 1.633385 6.628567 -0.894223 -3.101895 11.720682 -11.937002 -62.061963 17.481071 -2.234975 -5.628495 0.042003 -6.365272 -8.216856 -2.453238 -5.418852 3.148257 -36.564912 2.722582 68.668288 -20.944896 0.494593 3.733720 4.297767 -16.044872 6.004570
48.209805 -346.424805 100.037384 5.834992 -3.762415 -6.955646 4.755232 -5.232061 11.634665 1.752136 57.352246 -6.157207 -1.475140 36.951191 -9.425820 0.943405 -5.984478 -3.606812 -5.673869 -21.385745 6.717809 2.172636 19.180038 3.441935 -1.874410 10.083778 5.198982 -3.156883 -1.919028 -3.279131 1.075284 10.208477 5.842760 2.684578 -3.460301 -1.176607 -3.340947 7.112293 0.666428 0.120914 -21.101053 3.748324 1.833246 4.863452 1.242849 6.330524 -1.078485 -3.646788 11.892021 -11.440375 -62.623776 16.183189 -1.591060 -5.610645 -0.320763 -7.419507 -8.062665 -2.838539 -5.381074 3.096179 -36.718332 2.349804 67.088165 -21.640375 0.507599 3.929474 4.616572 -15.569646 6.305584
48.867447 -349.757751 100.529289 6.656425 -4.004392 -8.386913 5.410979 -10.926912 13.591098 3.917061 61.756554 -8.323171 -1.145244 33.790403 -9.012658 1.476854 -6.655525 -3.294120 -6.588007 -18.181777 8.897034 2.986836 17.302467 3.179888 -2.018980 7.995849 3.518960 -2.949634 -1.218913 -1.919043 -0.432722 10.231180 9.112285 1.371358 -3.005440 -3.864575 -2.784583 6.782958 1.328181 0.003078 -20.693917 4.128411 2.166101 4.485331 0.868932 5.856294 -0.970468 -3.799090 12.085606 -10.840848 -63.337512 15.314493 -1.208499 -5.407296 -0.663207 -7.744174 -7.862014 -3.193970 -5.169596 2.914183 -37.105670 1.624435 65.610917 -21.569444 0.284586 4.270853 4.868630 -14.820243 6.562137
